{"type":"FeatureCollection","features":[{"type":"Feature","properties":{"name":"Vietnam"},"geometry":{"type":"MultiPolygon","coordinates":[[[[104.06,10.39],[104.02,10.03],[103.85,10.37],[104.06,10.39]]],[[[107.97,21.51],[107.41,21.28],[107.35,21.06],[107.16,20.95],[106.68,21.0],[106.75,20.74],[106.55,20.53],[106.52,20.29],[105.98,19.94],[105.62,18.97],[105.89,18.5],[106.5,17.95],[106.48,17.72],[106.37,17.75],[107.83,16.32],[108.03,16.33],[108.82,15.38],[109.3,13.86],[109.27,13.28],[109.44,12.6],[109.34,12.75],[109.22,12.65],[109.26,11.95],[108.99,11.34],[107.26,10.4],[107.01,10.66],[106.95,10.4],[106.73,10.54],[106.61,10.46],[106.74,10.44],[106.76,10.3],[106.46,10.3],[106.79,10.12],[106.6,9.86],[106.14,10.22],[106.57,9.64],[106.38,9.56],[105.83,10.0],[106.16,9.59],[106.17,9.4],[105.5,9.09],[105.11,8.63],[104.77,8.6],[104.9,8.75],[104.85,9.61],[105.09,9.95],[104.43,10.41],[104.85,10.53],[105.05,10.7],[105.05,10.91],[105.31,10.85],[105.76,10.99],[106.16,10.79],[106.16,11.04],[105.86,11.29],[105.85,11.64],[106.01,11.76],[106.4,11.69],[106.41,11.95],[107.51,12.36],[107.48,13.03],[107.61,13.44],[107.33,14.13],[107.54,14.65],[107.48,14.98],[107.65,15.26],[107.17,15.8],[107.4,16.04],[106.85,16.52],[106.66,16.49],[106.5,16.95],[105.11,18.41],[105.15,18.65],[103.89,19.3],[104.06,19.48],[104.03,19.68],[104.59,19.62],[104.93,20.02],[104.85,20.2],[104.37,20.44],[104.58,20.65],[104.1,20.95],[103.64,20.7],[103.1,20.89],[102.85,21.27],[102.95,21.68],[102.82,21.81],[102.66,21.68],[102.13,22.38],[102.47,22.75],[102.98,22.45],[103.33,22.77],[103.49,22.59],[103.62,22.78],[103.94,22.54],[104.14,22.8],[104.37,22.7],[104.69,22.82],[104.86,23.14],[105.28,23.35],[105.84,22.92],[106.15,22.97],[106.78,22.78],[106.55,22.5],[106.66,21.98],[106.97,21.92],[107.35,21.61],[107.76,21.66],[107.97,21.51]]],[[[107.6,21.22],[107.4,21.09],[107.48,21.27],[107.6,21.22]]],[[[107.52,20.93],[107.4,20.9],[107.55,21.03],[107.52,20.93]]],[[[107.03,20.75],[106.91,20.82],[107.04,20.84],[107.03,20.75]]]]}},{"type":"Feature","properties":{"name":"Uzbekistan"},"geometry":{"type":"MultiPolygon","coordinates":[[[[70.95,42.25],[71.23,42.16],[70.86,42.03],[70.2,41.51],[70.69,41.45],[70.86,41.22],[71.39,41.12],[71.42,41.34],[71.59,41.33],[71.66,41.54],[71.88,41.2],[72.16,41.17],[72.19,41.03],[73.14,40.81],[72.6,40.53],[72.4,40.58],[72.36,40.4],[72.13,40.44],[71.69,40.15],[71.3,40.29],[70.6,40.21],[70.38,40.44],[70.75,40.74],[70.4,41.04],[69.71,40.66],[69.41,40.8],[69.21,40.57],[69.27,40.2],[68.63,40.17],[68.97,40.09],[68.8,40.05],[68.87,39.91],[68.64,39.84],[68.51,39.56],[67.72,39.62],[67.43,39.47],[67.36,39.22],[67.65,39.13],[67.69,38.99],[68.13,38.93],[68.09,38.47],[68.35,38.21],[67.81,37.49],[67.76,37.17],[66.52,37.35],[66.57,38.01],[65.97,38.24],[65.61,38.24],[63.76,39.16],[62.48,39.98],[61.9,41.09],[61.5,41.28],[60.45,41.22],[60.09,41.4],[60.08,41.76],[60.2,41.8],[59.94,41.97],[59.99,42.21],[59.35,42.32],[58.59,42.78],[58.15,42.63],[58.47,42.3],[58.03,42.49],[57.81,42.19],[57.29,42.12],[56.96,41.86],[57.12,41.35],[57.02,41.26],[55.98,41.32],[55.98,44.99],[58.56,45.56],[61.01,44.39],[61.99,43.49],[63.21,43.63],[64.44,43.55],[64.91,43.71],[65.5,43.31],[65.8,42.88],[66.1,42.99],[66.01,42.0],[66.5,41.99],[66.71,41.18],[67.94,41.2],[68.11,41.03],[68.05,40.81],[68.42,40.62],[68.57,40.62],[68.58,40.88],[69.15,41.43],[70.95,42.25]]],[[[71.21,39.89],[71.01,39.9],[70.98,40.13],[71.23,40.05],[71.21,39.89]]]]}},{"type":"Feature","properties":{"name":"Guam"},"geometry":{"type":"MultiPolygon","coordinates":[[[[144.74,13.26],[144.65,13.43],[144.88,13.61],[144.74,13.26]]]]}},{"type":"Feature","properties":{"name":"Br. Indian Ocean Ter."},"geometry":{"type":"MultiPolygon","coordinates":[[[[72.49,-7.38],[72.43,-7.44],[72.35,-7.26],[72.45,-7.4],[72.45,-7.22],[72.49,-7.38]]]]}},{"type":"Feature","properties":{"name":"Turkmenistan"},"geometry":{"type":"MultiPolygon","coordinates":[[[[55.98,41.32],[57.02,41.26],[57.12,41.35],[56.96,41.86],[57.29,42.12],[57.81,42.19],[58.03,42.49],[58.47,42.3],[58.15,42.63],[58.59,42.78],[59.35,42.32],[59.99,42.21],[59.94,41.97],[60.2,41.8],[60.08,41.76],[60.09,41.4],[60.45,41.22],[61.5,41.28],[61.9,41.09],[62.48,39.98],[63.76,39.16],[65.61,38.24],[65.97,38.24],[66.57,38.01],[66.52,37.35],[65.77,37.57],[65.55,37.25],[64.82,37.13],[64.51,36.34],[64.01,36.01],[63.13,35.85],[63.06,35.45],[62.31,35.17],[61.98,35.44],[61.62,35.43],[61.26,35.62],[61.12,36.64],[60.34,36.64],[60.06,36.96],[59.45,37.25],[59.3,37.51],[58.82,37.68],[58.26,37.67],[57.35,37.97],[57.19,38.22],[56.44,38.25],[56.27,38.08],[55.38,38.05],[54.9,37.78],[54.7,37.47],[53.91,37.34],[53.87,38.95],[53.7,39.21],[53.34,39.34],[53.16,39.26],[53.24,39.61],[53.6,39.55],[53.47,39.67],[53.49,39.91],[52.99,39.99],[53.04,39.77],[52.8,40.05],[52.73,40.4],[52.94,41.04],[53.15,40.82],[53.62,40.82],[53.87,40.65],[54.38,40.69],[54.32,40.83],[54.69,40.87],[54.7,41.07],[54.09,41.52],[53.8,42.12],[53.16,42.09],[52.97,41.98],[52.81,41.71],[52.85,41.2],[52.49,41.78],[53.06,42.15],[54.12,42.34],[54.85,41.97],[55.43,41.3],[55.98,41.32]]]]}},{"type":"Feature","properties":{"name":"Timor-Leste"},"geometry":{"type":"MultiPolygon","coordinates":[[[[125.07,-9.51],[124.96,-9.21],[125.15,-9.04],[124.94,-9.05],[124.92,-8.94],[125.18,-8.65],[126.97,-8.32],[127.3,-8.42],[126.92,-8.72],[125.41,-9.28],[125.07,-9.51]]],[[[124.04,-9.34],[124.44,-9.19],[124.28,-9.43],[124.04,-9.34]]]]}},{"type":"Feature","properties":{"name":"Thailand"},"geometry":{"type":"MultiPolygon","coordinates":[[[[102.43,11.99],[102.3,11.98],[102.28,12.15],[102.43,11.99]]],[[[98.41,7.9],[98.3,7.78],[98.32,8.17],[98.43,8.09],[98.41,7.9]]],[[[100.12,20.32],[100.32,20.39],[100.52,20.18],[100.4,19.76],[100.51,19.55],[101.21,19.55],[101.29,18.98],[101.05,18.44],[101.14,18.14],[100.96,17.54],[101.17,17.5],[102.1,18.21],[102.66,17.82],[103.05,18.03],[103.29,18.41],[103.95,18.32],[104.82,17.3],[104.82,16.47],[105.64,15.66],[105.49,15.26],[105.48,14.53],[105.07,14.23],[104.78,14.43],[103.2,14.33],[102.91,14.14],[102.55,13.59],[102.32,13.54],[102.5,12.67],[102.76,12.43],[102.74,12.09],[102.93,11.71],[102.59,12.2],[102.54,12.11],[101.84,12.64],[100.9,12.65],[100.96,13.43],[100.6,13.57],[100.02,13.35],[99.99,12.17],[99.17,10.32],[99.16,9.73],[99.25,9.27],[99.84,9.29],[99.99,8.59],[100.28,8.27],[100.55,7.23],[100.28,7.55],[100.26,7.77],[100.16,7.6],[100.42,7.19],[101.02,6.86],[101.5,6.87],[102.1,6.24],[101.87,5.83],[101.68,5.78],[101.56,5.91],[101.11,5.64],[100.98,5.77],[101.05,6.24],[100.87,6.25],[100.75,6.46],[100.35,6.55],[100.26,6.68],[100.12,6.44],[99.7,6.88],[99.6,7.36],[99.36,7.37],[98.7,8.26],[98.58,8.34],[98.36,8.19],[98.24,8.42],[98.76,10.66],[99.61,11.78],[99.41,12.55],[99.12,13.03],[99.14,13.72],[98.2,14.98],[98.19,15.2],[98.56,15.37],[98.59,16.05],[98.89,16.35],[98.66,16.33],[98.44,16.98],[97.71,17.8],[97.63,18.29],[97.37,18.52],[97.75,18.59],[97.82,19.46],[98.02,19.75],[98.92,19.77],[99.07,20.1],[99.49,20.15],[99.46,20.36],[99.89,20.42],[100.12,20.32]]],[[[100.07,9.59],[99.96,9.42],[99.94,9.56],[100.07,9.59]]]]}},{"type":"Feature","properties":{"name":"Tajikistan"},"geometry":{"type":"MultiPolygon","coordinates":[[[[67.76,37.17],[67.81,37.49],[68.35,38.21],[68.09,38.47],[68.13,38.93],[67.69,38.99],[67.65,39.13],[67.36,39.22],[67.43,39.47],[67.72,39.62],[68.46,39.54],[68.64,39.84],[68.87,39.91],[68.8,40.05],[68.97,40.09],[68.63,40.17],[69.27,40.2],[69.21,40.57],[69.36,40.77],[69.71,40.66],[70.4,41.04],[70.75,40.72],[70.37,40.38],[70.6,40.21],[70.95,40.19],[70.52,39.95],[69.97,40.2],[69.53,40.1],[69.48,39.92],[69.28,39.92],[69.3,39.52],[70.5,39.59],[70.8,39.39],[71.47,39.6],[71.78,39.28],[72.04,39.35],[72.23,39.21],[72.56,39.38],[73.63,39.45],[73.8,38.61],[74.03,38.54],[74.28,38.66],[74.81,38.46],[74.89,37.6],[75.12,37.39],[74.89,37.23],[74.35,37.42],[73.75,37.23],[73.63,37.26],[73.72,37.42],[73.38,37.46],[72.9,37.27],[72.66,37.03],[71.67,36.7],[71.43,37.13],[71.58,37.91],[71.28,37.92],[71.26,38.31],[70.88,38.46],[70.21,37.92],[70.19,37.58],[69.49,37.55],[69.3,37.12],[68.91,37.33],[68.07,36.95],[67.76,37.17]]]]}},{"type":"Feature","properties":{"name":"Taiwan"},"geometry":{"type":"MultiPolygon","coordinates":[[[[121.01,22.62],[120.84,21.93],[120.74,21.96],[120.08,23.09],[120.13,23.65],[121.04,25.03],[121.59,25.28],[121.93,24.97],[121.4,23.17],[121.01,22.62]]],[[[118.41,24.52],[118.43,24.41],[118.3,24.44],[118.41,24.52]]]]}},{"type":"Feature","properties":{"name":"Sri Lanka"},"geometry":{"type":"MultiPolygon","coordinates":[[[[79.98,9.81],[80.25,9.8],[80.71,9.37],[81.37,8.43],[81.87,7.29],[81.86,6.9],[81.64,6.43],[80.72,5.98],[80.27,6.01],[80.1,6.15],[79.86,6.83],[79.71,8.18],[79.75,8.29],[79.81,8.05],[80.09,9.58],[80.43,9.48],[80.05,9.65],[79.98,9.81]]]]}},{"type":"Feature","properties":{"name":"South Korea"},"geometry":{"type":"MultiPolygon","coordinates":[[[[126.63,37.78],[127.09,38.28],[128.04,38.31],[128.37,38.62],[129.42,37.06],[129.4,36.05],[129.57,36.05],[129.56,35.95],[129.21,35.18],[128.51,35.1],[128.44,34.87],[128.04,35.02],[127.71,34.95],[127.72,34.72],[127.4,34.82],[127.48,34.63],[127.32,34.46],[127.17,34.55],[127.25,34.76],[126.9,34.44],[126.75,34.51],[126.53,34.31],[126.26,34.67],[126.52,34.7],[126.59,34.82],[126.42,34.82],[126.29,35.15],[126.61,35.57],[126.49,35.65],[126.75,35.87],[126.54,36.17],[126.49,36.69],[126.16,36.77],[126.49,37.01],[126.87,36.82],[126.98,36.94],[126.75,37.19],[126.56,37.72],[126.63,37.78]]],[[[128.74,34.8],[128.65,34.74],[128.49,34.87],[128.72,35.01],[128.74,34.8]]],[[[128.07,34.81],[128.05,34.71],[127.87,34.73],[127.83,34.87],[128.07,34.81]]],[[[126.23,34.37],[126.12,34.44],[126.34,34.54],[126.23,34.37]]],[[[126.52,37.74],[126.46,37.61],[126.37,37.77],[126.52,37.74]]],[[[126.17,34.73],[126.01,34.87],[126.08,34.91],[126.17,34.73]]],[[[126.33,33.22],[126.17,33.31],[126.34,33.46],[126.9,33.52],[126.87,33.34],[126.33,33.22]]]]}},{"type":"Feature","properties":{"name":"Singapore"},"geometry":{"type":"MultiPolygon","coordinates":[[[[103.97,1.33],[103.65,1.33],[103.82,1.45],[103.97,1.33]]]]}},{"type":"Feature","properties":{"name":"Russia"},"geometry":{"type":"MultiPolygon","coordinates":[[[[130.69,42.3],[130.42,42.73],[131.07,42.9],[131.26,43.38],[131.17,43.7],[131.26,44.07],[130.98,44.84],[131.45,44.98],[131.85,45.33],[132.94,45.03],[133.11,45.13],[133.19,45.49],[133.44,45.6],[133.51,45.88],[133.86,46.25],[133.87,46.5],[134.2,47.13],[134.17,47.3],[134.75,47.72],[134.57,48.02],[134.67,48.25],[134.29,48.37],[133.47,48.1],[133.14,48.11],[132.71,47.95],[132.48,47.71],[130.96,47.71],[130.73,48.02],[130.8,48.34],[130.55,48.6],[130.55,48.86],[130.2,48.89],[129.5,49.39],[129.07,49.37],[128.7,49.6],[128.0,49.57],[127.55,49.8],[127.59,50.21],[127.34,50.35],[127.31,50.71],[126.92,51.1],[126.34,52.36],[126.02,52.61],[126.05,52.74],[125.65,53.04],[125.08,53.2],[124.81,53.13],[123.61,53.55],[120.99,53.28],[120.09,52.79],[120.07,52.63],[120.66,52.57],[120.68,51.97],[120.07,51.6],[119.16,50.41],[119.35,50.28],[119.26,50.07],[118.45,49.84],[117.87,49.51],[116.22,50.01],[115.43,49.9],[114.74,50.23],[114.3,50.27],[113.57,50.01],[112.81,49.52],[111.34,49.36],[110.71,49.14],[108.61,49.32],[107.97,49.65],[107.92,49.95],[107.23,49.99],[106.71,50.31],[105.38,50.47],[104.08,50.15],[103.3,50.2],[102.29,50.59],[102.11,51.35],[99.92,51.76],[98.89,52.12],[98.64,51.8],[98.04,51.45],[97.84,51.05],[98.03,50.64],[98.28,50.53],[98.25,50.3],[98.0,50.01],[97.36,49.74],[96.07,50.0],[95.52,49.91],[94.61,50.02],[94.35,50.22],[94.25,50.56],[93.1,50.6],[92.94,50.78],[92.63,50.69],[92.35,50.86],[92.19,50.7],[91.8,50.69],[91.42,50.47],[90.05,50.09],[89.64,49.9],[89.65,49.72],[89.11,49.5],[88.19,49.45],[87.99,49.19],[87.42,49.08],[86.63,49.56],[86.68,49.78],[86.18,49.5],[85.23,49.62],[84.99,50.06],[84.32,50.24],[83.95,50.77],[83.36,50.99],[82.49,50.73],[81.47,50.74],[81.39,50.96],[81.07,50.97],[81.13,51.19],[80.74,51.29],[80.45,51.18],[80.42,50.95],[79.99,50.77],[77.86,53.27],[76.48,54.02],[76.42,54.15],[76.65,54.15],[76.84,54.44],[75.44,54.09],[75.22,53.89],[74.45,53.65],[74.35,53.49],[73.86,53.62],[73.41,53.45],[73.31,53.71],[73.68,53.93],[73.67,54.06],[73.23,53.96],[72.62,54.13],[72.45,53.94],[72.19,54.33],[72.0,54.21],[71.09,54.21],[71.19,54.6],[70.74,55.31],[70.18,55.16],[68.98,55.39],[68.21,55.16],[68.16,54.98],[65.48,54.62],[65.09,54.34],[64.46,54.38],[61.93,53.95],[61.23,54.02],[60.98,53.62],[61.53,53.52],[61.23,53.45],[61.2,53.29],[61.66,53.23],[62.08,53.01],[61.05,52.97],[60.77,52.68],[60.99,52.34],[60.03,51.93],[60.46,51.65],[61.55,51.32],[61.39,50.86],[60.94,50.7],[60.42,50.68],[60.06,50.85],[59.81,50.58],[59.52,50.49],[59.45,50.62],[58.88,50.69],[58.36,51.06],[57.84,51.09],[57.44,50.89],[57.01,51.07],[56.49,51.02],[55.69,50.58],[54.64,51.01],[54.55,50.95],[54.65,50.66],[54.56,50.54],[54.14,51.04],[53.34,51.48],[52.57,51.48],[52.22,51.71],[51.34,51.48],[51.16,51.65],[50.79,51.73],[50.31,51.32],[49.5,51.08],[49.32,50.85],[48.63,50.61],[48.84,50.01],[48.76,49.93],[48.33,49.86],[47.71,50.38],[47.43,50.36],[47.25,50.0],[46.89,49.7],[46.8,49.37],[47.03,49.15],[46.7,48.81],[46.66,48.41],[47.06,48.23],[47.09,47.95],[47.29,47.74],[48.17,47.71],[48.96,46.77],[48.56,46.76],[48.54,46.61],[49.25,46.29],[48.68,46.09],[48.73,45.9],[48.49,45.93],[47.63,45.58],[47.46,45.68],[47.51,45.49],[47.08,44.82],[47.0,44.88],[46.72,44.56],[46.75,44.42],[47.31,44.1],[47.46,43.56],[47.65,43.88],[47.46,43.04],[48.57,41.84],[47.86,41.21],[47.52,41.23],[47.26,41.32],[46.75,41.81],[45.64,42.21],[45.66,42.52],[44.87,42.76],[44.77,42.62],[44.51,42.75],[43.83,42.57],[43.78,42.75],[42.76,43.17],[41.58,43.22],[40.65,43.53],[40.15,43.57],[39.98,43.42],[38.72,44.29],[38.18,44.42],[37.85,44.7],[37.5,44.7],[37.2,44.97],[36.65,45.13],[36.94,45.29],[36.79,45.41],[37.21,45.27],[37.65,45.38],[37.61,45.56],[37.93,46.0],[38.08,45.93],[38.18,46.09],[38.49,46.09],[37.91,46.41],[37.77,46.64],[38.5,46.66],[38.44,46.81],[39.27,47.04],[39.2,47.27],[38.67,47.14],[38.55,47.15],[38.76,47.26],[38.58,47.24],[38.21,47.09],[38.2,47.32],[38.29,47.56],[38.82,47.84],[39.78,47.89],[39.96,48.27],[39.85,48.3],[39.84,48.54],[39.64,48.59],[39.79,48.81],[40.0,48.82],[39.69,49.01],[40.11,49.25],[40.08,49.58],[39.78,49.57],[39.17,49.86],[38.92,49.82],[38.26,50.05],[38.05,49.92],[37.42,50.41],[36.62,50.21],[36.12,50.41],[35.59,50.37],[35.41,50.54],[35.31,51.04],[35.06,51.2],[34.21,51.26],[34.12,51.68],[34.4,51.78],[33.74,52.34],[32.44,52.31],[32.12,52.05],[31.76,52.1],[31.58,52.31],[31.56,52.76],[31.26,53.02],[31.42,53.2],[32.14,53.09],[32.71,53.42],[32.47,53.55],[32.45,53.69],[31.75,53.81],[31.83,54.03],[31.4,54.2],[31.07,54.49],[31.15,54.63],[30.8,54.78],[30.98,55.05],[30.81,55.31],[30.91,55.57],[30.23,55.85],[29.48,55.68],[29.28,55.97],[28.28,56.06],[28.15,56.14],[28.17,56.39],[27.88,56.82],[27.64,56.85],[27.83,57.29],[27.35,57.55],[27.54,57.8],[27.78,57.87],[27.5,58.22],[27.43,58.79],[27.9,59.28],[28.15,59.37],[28.01,59.48],[28.06,59.78],[28.33,59.69],[28.52,59.85],[28.95,59.83],[29.15,60.0],[30.12,59.87],[30.17,59.96],[29.72,60.2],[29.07,60.19],[28.64,60.38],[28.49,60.54],[28.62,60.49],[28.65,60.61],[28.51,60.68],[27.8,60.54],[31.19,62.48],[31.54,62.92],[31.18,63.21],[29.99,63.74],[30.53,64.08],[30.49,64.24],[29.99,64.52],[30.11,64.73],[29.6,64.97],[29.83,65.15],[29.61,65.25],[29.82,65.57],[29.72,65.62],[30.1,65.68],[30.09,65.79],[29.07,66.89],[29.99,67.67],[29.34,68.06],[28.69,68.19],[28.47,68.49],[28.77,68.84],[28.41,68.9],[29.12,69.05],[29.39,69.3],[29.99,69.39],[30.16,69.63],[30.86,69.54],[30.87,69.78],[31.55,69.7],[32.0,69.81],[31.98,69.95],[33.01,69.72],[32.92,69.6],[32.18,69.67],[32.09,69.63],[32.38,69.48],[33.0,69.47],[32.98,69.37],[33.45,69.43],[33.33,69.15],[33.14,69.07],[33.68,69.31],[35.86,69.19],[37.73,68.69],[38.43,68.36],[39.57,68.07],[39.82,68.06],[39.81,68.15],[40.38,67.83],[40.97,67.71],[41.13,67.27],[41.36,67.21],[41.19,66.83],[40.1,66.3],[38.65,66.07],[35.51,66.4],[34.82,66.61],[34.48,66.55],[34.45,66.65],[33.15,66.84],[32.85,67.02],[32.93,67.09],[31.9,67.16],[32.5,67.0],[32.46,66.92],[32.86,66.72],[33.18,66.68],[33.22,66.53],[33.66,66.44],[33.36,66.33],[34.11,66.23],[34.69,65.95],[34.78,65.77],[34.41,65.4],[34.8,64.99],[34.95,64.76],[34.87,64.56],[35.04,64.44],[35.65,64.38],[36.36,64.0],[37.44,63.81],[37.97,63.95],[38.06,64.09],[37.95,64.32],[37.18,64.41],[36.58,64.79],[36.53,64.94],[36.79,64.99],[36.88,65.17],[39.76,64.58],[40.06,64.77],[40.44,64.78],[39.8,65.35],[39.82,65.6],[40.69,65.96],[41.48,66.12],[42.21,66.52],[43.23,66.42],[43.65,66.25],[43.54,66.12],[44.1,66.01],[44.1,66.24],[44.49,66.67],[44.43,66.94],[44.29,67.1],[43.78,67.25],[44.23,68.0],[44.2,68.25],[43.33,68.67],[45.89,68.48],[46.68,67.97],[46.69,67.85],[45.53,67.76],[44.9,67.41],[45.56,67.19],[45.89,66.89],[46.49,66.8],[47.66,66.98],[47.87,67.58],[48.83,67.68],[48.75,67.9],[49.16,67.87],[50.7,68.32],[51.99,68.54],[52.4,68.35],[52.72,68.48],[52.34,68.61],[53.8,69.0],[54.49,68.99],[53.8,68.91],[53.97,68.84],[53.76,68.63],[53.93,68.44],[53.26,68.27],[54.86,68.2],[54.92,68.37],[55.42,68.57],[56.04,68.65],[57.13,68.55],[58.17,68.89],[59.06,69.01],[59.37,68.74],[59.11,68.62],[59.1,68.44],[59.73,68.35],[59.92,68.47],[59.9,68.71],[60.49,68.73],[60.93,68.99],[60.17,69.59],[60.91,69.85],[64.19,69.53],[64.93,69.33],[64.9,69.25],[67.0,68.87],[67.73,68.51],[68.5,68.35],[69.14,68.95],[68.54,68.97],[68.12,69.24],[68.01,69.48],[67.62,69.58],[67.06,69.69],[66.9,69.55],[66.8,69.74],[66.93,70.01],[67.24,70.11],[67.15,70.22],[67.28,70.74],[66.7,70.82],[66.85,71.06],[66.64,71.08],[66.92,71.28],[68.27,71.68],[69.39,72.96],[71.5,72.91],[72.81,72.69],[72.57,72.01],[71.87,71.46],[72.58,71.15],[72.7,70.96],[72.7,70.46],[72.47,70.27],[72.6,69.79],[72.58,68.97],[73.59,68.48],[73.14,68.18],[73.07,67.77],[72.59,67.59],[71.85,67.01],[71.37,66.96],[71.54,66.68],[70.72,66.52],[70.38,66.6],[70.69,66.75],[69.01,66.79],[69.19,66.58],[69.98,66.4],[72.07,66.25],[72.32,66.33],[72.42,66.56],[73.79,67.0],[74.07,67.41],[74.77,67.77],[74.74,68.07],[74.39,68.42],[74.58,68.75],[75.12,68.86],[76.46,68.98],[77.24,68.47],[77.17,67.78],[77.77,67.57],[78.92,67.59],[77.59,67.75],[77.54,68.01],[77.66,68.19],[78.0,68.26],[77.65,68.9],[76.0,69.24],[74.81,69.09],[73.78,69.2],[73.89,69.42],[73.58,69.8],[73.83,70.18],[74.34,70.58],[73.58,71.22],[73.09,71.44],[73.67,71.85],[74.99,72.14],[75.06,72.55],[74.79,72.81],[75.37,72.8],[75.6,72.58],[75.74,72.3],[75.27,71.96],[75.25,71.81],[75.5,71.65],[75.28,71.43],[75.73,71.27],[77.59,71.17],[78.32,70.93],[79.02,70.95],[78.49,71.03],[78.21,71.27],[76.43,71.55],[76.03,71.91],[76.87,72.03],[77.55,71.84],[78.19,71.91],[78.02,72.09],[77.44,72.16],[78.48,72.39],[79.42,72.38],[80.76,72.09],[81.66,71.72],[83.11,71.72],[83.23,71.67],[82.98,71.45],[82.32,71.26],[82.24,71.0],[82.34,70.81],[82.16,70.6],[82.22,70.4],[82.59,70.89],[83.01,70.9],[83.03,70.58],[82.68,70.22],[83.08,70.09],[83.07,70.28],[83.5,70.35],[83.74,70.55],[83.15,71.1],[83.55,71.54],[83.53,71.68],[83.2,71.87],[82.65,71.93],[82.09,72.27],[80.83,72.49],[80.66,72.71],[80.84,72.95],[80.42,73.23],[80.58,73.57],[85.2,73.72],[86.89,73.89],[87.03,73.82],[85.79,73.44],[85.82,73.33],[86.68,73.11],[85.97,73.35],[85.94,73.46],[87.12,73.62],[87.57,73.81],[87.21,73.88],[86.57,74.24],[86.0,74.32],[86.4,74.45],[87.23,74.36],[85.79,74.65],[86.2,74.82],[86.86,74.72],[87.42,74.94],[87.47,75.01],[86.94,75.07],[87.01,75.17],[87.67,75.13],[90.18,75.59],[94.08,75.91],[92.89,75.91],[92.97,76.08],[93.26,76.1],[95.58,76.14],[96.08,76.08],[95.65,75.89],[96.51,76.01],[96.6,75.99],[96.5,75.89],[98.66,76.24],[99.77,76.03],[99.54,75.8],[99.85,75.93],[99.83,76.14],[98.87,76.51],[101.6,76.44],[100.93,76.56],[101.1,76.7],[100.92,76.82],[100.99,76.99],[102.61,77.51],[104.01,77.73],[106.06,77.39],[104.2,77.1],[106.94,77.03],[107.43,76.93],[106.64,76.57],[106.38,76.59],[106.41,76.51],[107.72,76.52],[108.18,76.74],[111.11,76.72],[111.94,76.55],[112.09,76.48],[111.94,76.38],[112.62,76.38],[112.8,76.13],[112.66,76.05],[113.27,76.25],[113.56,75.89],[113.86,75.92],[113.57,75.57],[112.47,75.84],[112.96,75.57],[113.24,75.61],[113.73,75.45],[113.61,75.29],[112.92,75.02],[109.84,74.32],[109.91,74.26],[109.81,74.17],[108.2,73.69],[107.27,73.62],[106.68,73.33],[106.19,73.31],[105.14,72.78],[105.71,72.84],[106.48,73.14],[107.75,73.17],[110.77,73.69],[110.87,73.73],[110.72,73.78],[109.71,73.74],[109.87,73.93],[110.26,74.02],[111.06,73.94],[111.13,74.05],[111.55,74.03],[111.23,73.97],[111.4,73.83],[112.15,73.71],[112.8,73.75],[112.94,73.84],[112.84,73.96],[113.03,73.91],[113.42,73.65],[113.16,73.46],[113.49,73.35],[113.47,73.05],[113.13,72.83],[113.31,72.66],[113.66,72.63],[113.22,72.81],[113.54,73.05],[113.56,73.23],[113.89,73.35],[113.51,73.5],[114.06,73.58],[115.34,73.7],[118.45,73.59],[118.94,73.48],[118.46,73.46],[118.43,73.25],[119.75,72.98],[122.54,72.88],[122.75,72.91],[122.53,73.02],[123.16,72.95],[123.62,73.19],[123.32,73.43],[123.42,73.64],[124.54,73.75],[125.6,73.45],[126.25,73.55],[126.29,73.39],[126.55,73.33],[127.03,73.55],[127.74,73.48],[129.1,73.11],[128.6,72.9],[129.02,72.87],[129.25,72.71],[128.42,72.54],[129.28,72.44],[129.41,72.32],[129.28,72.09],[128.93,72.08],[127.73,72.41],[128.91,71.76],[129.21,71.92],[129.46,71.74],[128.84,71.66],[129.13,71.59],[129.76,71.12],[130.54,70.89],[130.76,70.96],[131.02,70.75],[131.56,70.9],[132.04,71.24],[132.23,71.64],[132.65,71.93],[133.13,71.61],[133.69,71.43],[134.7,71.39],[136.09,71.62],[137.94,71.13],[137.84,71.23],[138.31,71.33],[137.92,71.38],[138.23,71.6],[138.78,71.63],[139.21,71.44],[139.98,71.49],[139.7,71.7],[139.72,71.88],[139.36,71.95],[140.19,72.19],[139.18,72.16],[139.14,72.33],[139.6,72.5],[141.08,72.59],[140.65,72.84],[140.81,72.89],[146.25,72.44],[146.23,72.35],[144.78,72.38],[144.17,72.26],[144.47,72.17],[146.83,72.3],[146.11,71.94],[146.01,71.95],[146.23,72.14],[145.76,72.23],[145.66,72.07],[145.76,71.94],[145.06,71.93],[144.99,71.75],[145.19,71.7],[146.07,71.81],[147.26,72.33],[149.5,72.16],[150.02,71.9],[149.05,71.8],[148.97,71.69],[150.6,71.52],[150.67,71.46],[150.1,71.23],[150.97,71.38],[151.58,71.29],[152.09,71.02],[151.76,70.98],[152.51,70.83],[155.9,71.1],[158.7,70.94],[159.35,70.79],[159.91,70.51],[160.01,70.31],[159.73,69.87],[159.83,69.78],[160.91,69.61],[161.04,69.1],[161.34,68.91],[160.86,68.54],[161.1,68.56],[161.57,68.91],[161.54,69.38],[162.17,69.61],[163.2,69.71],[166.82,69.5],[167.86,69.73],[168.15,69.58],[168.3,69.27],[169.31,69.08],[169.61,68.79],[170.54,68.83],[171.0,69.13],[170.58,69.58],[170.16,69.63],[170.5,69.86],[170.49,70.11],[173.28,69.82],[173.44,69.95],[175.92,69.9],[178.85,69.39],[180,68.98],[180,65.07],[178.52,64.6],[177.75,64.72],[176.88,65.08],[176.34,65.05],[177.04,65.0],[177.22,64.86],[177.07,64.79],[176.06,64.96],[174.55,64.68],[176.06,64.9],[176.35,64.71],[176.14,64.59],[177.43,64.76],[177.43,64.44],[177.69,64.3],[178.04,64.22],[178.23,64.36],[178.38,64.26],[178.45,64.01],[178.65,63.97],[178.73,63.67],[178.44,63.61],[178.71,63.52],[178.68,63.4],[178.79,63.54],[178.92,63.35],[179.39,63.15],[179.26,63.01],[179.57,62.69],[179.12,62.32],[177.29,62.6],[177.34,62.78],[177.02,62.78],[176.96,62.66],[177.16,62.56],[174.51,61.82],[173.62,61.72],[173.13,61.41],[172.86,61.47],[172.91,61.31],[172.4,61.17],[172.39,61.06],[170.61,60.43],[170.35,59.97],[169.98,60.07],[169.62,60.44],[169.23,60.6],[168.14,60.57],[167.23,60.41],[166.27,59.86],[166.14,59.98],[166.35,60.48],[165.08,60.1],[164.95,59.84],[164.53,60.06],[164.11,59.9],[164.14,59.98],[163.74,60.03],[163.36,59.78],[163.27,59.3],[162.14,58.45],[161.96,58.08],[162.39,57.72],[162.65,57.95],[163.23,57.79],[162.76,57.24],[162.8,56.81],[163.26,56.69],[163.34,56.23],[163.05,56.04],[162.84,56.07],[162.63,56.23],[163.04,56.52],[162.67,56.49],[162.49,56.4],[162.53,56.26],[162.08,56.09],[161.72,55.5],[162.11,54.75],[161.62,54.52],[160.77,54.54],[160.07,54.19],[159.84,53.78],[160.03,53.13],[159.59,53.24],[158.75,52.91],[158.47,53.03],[158.61,52.87],[158.49,52.38],[158.1,51.81],[156.75,50.97],[156.52,51.38],[156.36,52.51],[156.11,52.87],[155.56,55.2],[155.72,56.07],[155.98,56.7],[156.85,57.29],[156.98,57.47],[156.83,57.78],[157.45,57.8],[157.67,58.02],[158.28,58.01],[159.21,58.52],[159.85,59.13],[161.75,60.15],[162.07,60.47],[163.71,60.92],[163.55,61.03],[164.01,61.34],[163.8,61.46],[164.02,61.71],[164.21,62.29],[164.6,62.47],[165.21,62.37],[165.4,62.49],[164.42,62.7],[163.33,62.55],[163.02,61.89],[163.01,61.79],[163.26,61.7],[163.09,61.57],[162.86,61.71],[162.39,61.66],[160.77,60.75],[160.17,60.64],[160.38,61.03],[159.79,60.96],[159.95,61.13],[159.88,61.29],[160.25,61.65],[160.31,61.89],[159.55,61.72],[159.19,61.93],[157.08,61.68],[156.68,61.48],[156.63,61.27],[155.72,60.68],[154.97,60.38],[154.29,59.83],[154.15,59.53],[154.97,59.45],[155.17,59.36],[155.16,59.19],[154.46,59.22],[154.01,59.08],[153.36,59.21],[152.82,58.93],[152.32,59.03],[152.09,58.91],[151.33,58.88],[151.12,59.08],[151.99,59.16],[152.26,59.22],[152.17,59.28],[151.35,59.56],[150.48,59.49],[150.67,59.56],[149.42,59.76],[149.07,59.63],[149.2,59.49],[148.8,59.53],[148.74,59.37],[148.96,59.37],[148.73,59.26],[148.26,59.41],[147.51,59.27],[146.54,59.46],[146.05,59.17],[145.55,59.41],[143.19,59.37],[142.33,59.15],[141.6,58.65],[140.99,58.42],[140.68,58.21],[140.45,57.81],[139.18,57.26],[137.69,56.14],[135.54,55.11],[135.21,54.84],[135.26,54.73],[135.85,54.58],[136.8,54.62],[136.68,53.93],[136.8,53.78],[137.16,53.82],[137.26,54.03],[137.14,54.18],[137.67,54.28],[137.34,54.1],[137.83,53.95],[137.25,53.55],[137.95,53.6],[138.53,53.96],[138.57,53.82],[138.25,53.52],[138.45,53.54],[138.7,53.87],[138.66,54.3],[139.32,54.19],[139.71,54.28],[140.18,54.05],[140.69,53.6],[141.37,53.29],[141.4,53.18],[141.18,53.02],[140.84,53.09],[141.26,52.84],[141.13,52.44],[141.49,52.18],[141.37,51.92],[140.93,51.62],[140.52,50.8],[140.54,50.13],[140.62,50.08],[140.46,49.91],[140.52,49.6],[140.31,49.05],[140.38,48.96],[140.11,48.42],[139.37,47.89],[138.59,47.06],[138.34,46.54],[137.69,45.82],[135.87,44.37],[135.13,43.53],[134.01,42.95],[133.16,42.7],[132.3,42.88],[132.31,43.31],[131.87,43.1],[131.94,43.3],[131.16,42.63],[130.71,42.66],[130.83,42.52],[130.69,42.3]]],[[[148.6,45.32],[147.66,44.98],[146.9,44.4],[147.25,44.86],[147.89,45.23],[147.92,45.38],[148.06,45.26],[148.32,45.28],[148.77,45.53],[148.84,45.36],[148.6,45.32]]],[[[146.71,43.74],[146.62,43.81],[146.9,43.8],[146.71,43.74]]],[[[146.21,44.5],[146.57,44.44],[146.52,44.37],[145.91,44.1],[145.59,43.85],[145.56,43.66],[145.44,43.74],[146.21,44.5]]]]}},{"type":"Feature","properties":{"name":"Philippines"},"geometry":{"type":"MultiPolygon","coordinates":[[[[121.1,18.62],[121.85,18.3],[122.27,18.46],[122.15,17.66],[122.52,17.12],[122.14,16.18],[121.6,15.93],[121.61,15.67],[121.39,15.32],[121.7,14.74],[121.63,14.58],[121.77,14.17],[122.21,13.93],[122.2,14.15],[122.63,14.32],[122.93,14.19],[123.1,13.75],[123.3,13.84],[123.32,14.06],[123.82,13.84],[123.81,13.72],[123.55,13.65],[123.82,13.27],[123.79,13.11],[124.14,13.04],[124.06,12.57],[123.88,12.69],[123.95,12.92],[123.31,13.04],[123.16,13.44],[122.6,13.91],[122.47,13.89],[122.67,13.4],[122.6,13.19],[122.38,13.52],[121.78,13.94],[121.34,13.65],[120.84,13.88],[120.64,13.8],[120.62,14.19],[120.94,14.65],[120.58,14.88],[120.59,14.48],[120.44,14.45],[120.25,14.79],[120.08,14.85],[119.77,16.26],[119.83,16.33],[120.16,16.05],[120.37,16.11],[120.36,17.64],[120.6,18.51],[121.1,18.62]]],[[[117.31,8.44],[117.22,8.37],[117.23,8.46],[117.35,8.71],[119.22,10.48],[119.31,10.97],[119.55,11.31],[119.53,10.95],[119.69,10.5],[119.37,10.33],[119.19,10.06],[118.78,9.92],[118.43,9.26],[117.31,8.44]]],[[[122.5,11.62],[122.84,11.6],[122.89,11.44],[123.16,11.54],[123.12,11.29],[122.77,10.82],[121.95,10.44],[122.1,11.64],[121.92,11.85],[122.03,11.9],[122.5,11.62]]],[[[123.13,9.06],[122.99,9.06],[122.87,9.32],[122.56,9.48],[122.4,9.82],[122.47,9.96],[122.86,10.09],[122.82,10.5],[122.98,10.89],[123.26,10.99],[123.51,10.92],[123.57,10.78],[123.16,9.86],[123.32,9.27],[123.13,9.06]]],[[[124.57,11.34],[124.93,11.37],[125.03,11.21],[125.01,10.79],[125.27,10.31],[125.14,10.19],[124.99,10.37],[125.03,10.03],[124.78,10.17],[124.74,10.88],[124.45,10.92],[124.31,11.49],[124.57,11.34]]],[[[125.24,12.53],[125.54,12.19],[125.49,11.59],[125.74,11.05],[125.23,11.15],[124.95,11.48],[125.0,11.76],[124.45,12.15],[124.33,12.4],[124.29,12.57],[125.24,12.53]]],[[[120.7,13.48],[121.2,13.43],[121.52,13.13],[121.54,12.64],[121.24,12.22],[120.92,12.51],[120.65,13.17],[120.34,13.41],[120.4,13.52],[120.7,13.48]]],[[[126.01,9.32],[126.19,9.28],[126.3,8.95],[126.14,8.6],[126.37,8.48],[126.46,8.2],[126.58,7.25],[126.19,6.85],[126.19,6.31],[125.82,7.33],[125.69,7.26],[125.38,6.69],[125.59,6.47],[125.67,5.98],[125.35,5.6],[125.23,6.07],[124.93,5.88],[124.08,6.4],[123.99,6.99],[124.21,7.4],[123.67,7.82],[123.49,7.81],[123.39,7.41],[123.1,7.7],[122.84,7.53],[122.79,7.72],[122.62,7.76],[122.14,6.95],[121.96,6.97],[121.92,7.2],[122.24,7.95],[122.91,8.16],[123.05,8.43],[123.43,8.7],[123.85,8.43],[123.8,8.05],[124.2,8.23],[124.4,8.6],[124.73,8.56],[124.87,8.97],[125.14,8.87],[125.21,9.03],[125.5,9.01],[125.47,9.76],[126.01,9.32]]],[[[123.37,9.45],[123.39,9.97],[124.04,11.27],[124.0,10.4],[123.7,10.13],[123.37,9.45]]],[[[121.92,18.89],[121.83,18.84],[121.94,19.01],[121.92,18.89]]],[[[121.52,19.36],[121.53,19.27],[121.37,19.36],[121.52,19.36]]],[[[121.16,6.08],[121.39,6.0],[121.29,5.87],[120.88,5.95],[121.16,6.08]]],[[[117.08,7.88],[117.03,7.81],[116.97,7.89],[116.99,8.05],[117.08,8.07],[117.08,7.88]]],[[[119.92,10.49],[119.79,10.46],[119.85,10.64],[120.01,10.57],[119.92,10.49]]],[[[120.1,12.17],[120.23,12.22],[120.31,12.01],[120.01,12.01],[119.89,12.3],[120.1,12.17]]],[[[120.04,11.7],[119.94,11.69],[119.86,11.95],[120.04,11.92],[120.04,11.7]]],[[[122.65,10.47],[122.54,10.42],[122.54,10.61],[122.7,10.74],[122.65,10.47]]],[[[124.59,9.79],[124.12,9.6],[123.94,9.62],[123.82,9.82],[124.34,10.16],[124.58,10.03],[124.59,9.79]]],[[[120.25,5.26],[119.82,5.07],[120.17,5.33],[120.25,5.26]]],[[[122.09,6.43],[121.96,6.42],[121.83,6.66],[122.06,6.74],[122.29,6.64],[122.09,6.43]]],[[[126.06,9.77],[126.07,10.06],[126.17,9.8],[126.06,9.77]]],[[[125.69,9.91],[125.49,10.12],[125.67,10.44],[125.69,9.91]]],[[[121.91,13.54],[122.11,13.46],[122.0,13.2],[121.83,13.33],[121.91,13.54]]],[[[122.09,12.35],[122.01,12.11],[121.92,12.33],[122.0,12.6],[122.15,12.65],[122.09,12.35]]],[[[122.65,12.31],[122.42,12.46],[122.6,12.49],[122.65,12.31]]],[[[123.72,12.29],[124.04,11.97],[124.05,11.75],[123.47,12.22],[123.16,11.93],[123.24,12.58],[123.72,12.29]]],[[[124.35,13.63],[124.18,13.53],[124.04,13.66],[124.22,14.08],[124.42,13.87],[124.35,13.63]]],[[[122.03,15.01],[121.93,14.66],[121.84,15.04],[122.03,15.01]]],[[[122.94,7.41],[122.8,7.32],[122.82,7.43],[122.94,7.41]]],[[[124.61,11.49],[124.36,11.67],[124.51,11.69],[124.61,11.49]]],[[[119.86,11.53],[119.83,11.38],[119.73,11.43],[119.86,11.53]]],[[[123.7,9.24],[123.61,9.1],[123.49,9.19],[123.7,9.24]]]]}},{"type":"Feature","properties":{"name":"Papua New Guinea"},"geometry":{"type":"MultiPolygon","coordinates":[[[[152.97,-4.76],[152.89,-4.83],[152.74,-4.64],[152.67,-4.13],[152.28,-3.58],[150.75,-2.74],[150.83,-2.57],[152.03,-3.25],[153.02,-4.11],[153.13,-4.35],[152.97,-4.76]]],[[[151.92,-4.3],[152.12,-4.21],[152.41,-4.34],[152.35,-4.82],[151.98,-5.07],[152.14,-5.36],[152.08,-5.46],[151.52,-5.55],[151.23,-5.92],[150.47,-6.26],[149.65,-6.29],[148.34,-5.67],[148.43,-5.47],[149.83,-5.52],[149.96,-5.45],[150.09,-5.01],[150.18,-5.52],[150.9,-5.45],[151.33,-4.96],[151.67,-4.88],[151.59,-4.2],[151.92,-4.3]]],[[[140.98,-9.12],[140.98,-6.91],[140.86,-6.74],[140.97,-6.35],[140.97,-2.61],[141.1,-2.61],[142.55,-3.2],[143.51,-3.43],[144.07,-3.81],[144.48,-3.83],[145.09,-4.35],[145.33,-4.39],[145.77,-4.82],[145.75,-5.4],[147.57,-6.06],[147.8,-6.32],[147.85,-6.66],[146.95,-6.83],[147.19,-7.38],[148.13,-8.1],[148.25,-8.55],[148.45,-8.69],[148.58,-9.05],[149.2,-9.03],[149.26,-9.5],[150.01,-9.69],[149.76,-9.81],[149.87,-10.01],[150.85,-10.24],[150.45,-10.31],[150.65,-10.52],[150.32,-10.65],[149.75,-10.35],[147.77,-10.07],[147.02,-9.39],[146.96,-9.06],[146.63,-8.95],[146.03,-8.08],[144.51,-7.57],[144.14,-7.76],[143.65,-7.46],[143.94,-7.94],[143.52,-8.0],[143.61,-8.2],[142.52,-8.32],[142.21,-8.2],[142.47,-8.37],[143.11,-8.47],[143.38,-8.76],[143.37,-8.96],[142.65,-9.33],[142.23,-9.17],[141.13,-9.22],[140.98,-9.12]]],[[[148.03,-5.83],[147.78,-5.63],[147.79,-5.49],[148.05,-5.61],[148.03,-5.83]]],[[[146.02,-4.73],[145.88,-4.67],[146.0,-4.54],[146.02,-4.73]]],[[[152.67,-3.13],[152.65,-3.22],[152.54,-3.1],[152.67,-3.13]]],[[[149.77,-1.55],[149.55,-1.47],[149.58,-1.35],[149.77,-1.55]]],[[[151.08,-10.02],[151.3,-9.96],[151.23,-10.19],[150.96,-10.09],[150.78,-9.71],[151.08,-10.02]]],[[[150.35,-9.49],[150.11,-9.36],[150.21,-9.21],[150.35,-9.49]]],[[[151.11,-8.73],[151.0,-8.52],[151.12,-8.42],[151.11,-8.73]]],[[[143.59,-8.48],[143.32,-8.37],[143.58,-8.39],[143.59,-8.48]]],[[[147.18,-5.43],[147.01,-5.31],[147.13,-5.19],[147.18,-5.43]]],[[[147.07,-1.96],[147.44,-2.01],[147.21,-2.18],[146.55,-2.21],[146.66,-1.97],[147.07,-1.96]]],[[[150.44,-2.66],[150.17,-2.66],[149.96,-2.47],[150.23,-2.38],[150.43,-2.47],[150.44,-2.66]]],[[[150.53,-9.35],[150.79,-9.42],[150.89,-9.67],[150.44,-9.62],[150.44,-9.36],[150.53,-9.35]]],[[[152.63,-8.96],[152.95,-9.07],[152.97,-9.21],[152.72,-9.17],[152.52,-9.01],[152.63,-8.96]]],[[[153.54,-11.48],[153.76,-11.59],[153.38,-11.56],[153.2,-11.32],[153.54,-11.48]]],[[[155.96,-6.69],[155.72,-6.86],[155.34,-6.72],[155.2,-6.31],[154.76,-5.93],[154.73,-5.44],[155.09,-5.62],[155.47,-6.15],[155.82,-6.38],[155.96,-6.69]]],[[[154.65,-5.43],[154.54,-5.11],[154.63,-5.01],[154.73,-5.22],[154.65,-5.43]]]]}},{"type":"Feature","properties":{"name":"Palau"},"geometry":{"type":"MultiPolygon","coordinates":[[[[134.6,7.38],[134.52,7.53],[134.65,7.71],[134.6,7.38]]]]}},{"type":"Feature","properties":{"name":"Pakistan"},"geometry":{"type":"MultiPolygon","coordinates":[[[[76.77,35.66],[77.05,35.11],[76.59,34.74],[75.71,34.5],[74.3,34.77],[73.96,34.65],[73.79,34.38],[73.97,34.24],[73.9,34.08],[74.25,33.95],[73.98,33.72],[74.15,33.51],[74.0,33.19],[74.3,32.99],[74.35,32.77],[74.66,32.76],[74.69,32.49],[75.33,32.28],[74.56,31.82],[74.52,31.19],[74.63,31.03],[73.9,30.44],[73.93,30.22],[73.81,30.09],[73.38,29.93],[72.9,29.03],[72.34,28.75],[71.87,27.96],[70.8,27.71],[70.4,28.03],[69.54,27.12],[69.51,26.74],[70.15,26.51],[70.1,25.91],[70.26,25.71],[70.65,25.67],[70.65,25.42],[71.05,24.69],[71.04,24.4],[70.72,24.24],[70.49,24.41],[69.81,24.17],[68.78,24.31],[68.72,23.96],[68.28,23.93],[68.12,23.75],[67.5,23.94],[67.31,24.17],[67.17,24.76],[66.7,24.86],[66.7,25.23],[66.32,25.6],[66.13,25.49],[66.47,25.45],[64.78,25.31],[64.66,25.18],[64.06,25.4],[63.56,25.35],[63.49,25.21],[61.57,25.19],[61.84,26.23],[62.24,26.36],[62.44,26.56],[63.16,26.65],[63.3,27.15],[62.76,27.25],[62.76,28.24],[61.89,28.55],[60.84,29.86],[62.48,29.41],[63.57,29.5],[64.1,29.39],[64.39,29.54],[65.1,29.56],[66.23,29.87],[66.35,30.8],[66.83,31.26],[67.45,31.23],[67.74,31.34],[67.58,31.51],[68.16,31.8],[68.6,31.8],[68.87,31.63],[69.28,31.94],[69.24,32.43],[69.5,33.02],[70.26,33.29],[69.89,34.01],[70.65,33.95],[71.05,34.05],[71.1,34.37],[70.97,34.53],[71.62,35.18],[71.43,35.83],[71.19,36.04],[71.62,36.44],[72.16,36.7],[73.12,36.87],[74.04,36.83],[74.6,37.04],[75.15,36.97],[75.35,36.91],[75.42,36.74],[75.88,36.6],[75.91,36.05],[76.15,35.83],[76.55,35.89],[76.77,35.66]]]]}},{"type":"Feature","properties":{"name":"North Korea"},"geometry":{"type":"MultiPolygon","coordinates":[[[[128.37,38.62],[128.04,38.31],[127.09,38.28],[126.63,37.78],[126.37,37.88],[126.12,37.74],[125.77,37.99],[125.36,37.72],[125.31,37.84],[124.99,37.93],[125.21,38.08],[124.69,38.13],[125.07,38.56],[125.55,38.69],[125.17,38.81],[125.41,39.29],[125.36,39.53],[124.78,39.76],[124.64,39.62],[124.35,39.91],[124.39,40.1],[124.89,40.46],[125.99,40.9],[126.49,41.36],[126.6,41.64],[126.9,41.78],[127.18,41.53],[128.15,41.39],[128.29,41.61],[128.05,41.99],[128.92,42.04],[129.31,42.41],[129.7,42.45],[129.86,42.97],[130.08,42.97],[130.69,42.3],[130.24,42.18],[129.76,41.71],[129.71,40.86],[127.53,39.7],[127.55,39.46],[127.39,39.21],[127.79,39.08],[128.37,38.62]]]]}},{"type":"Feature","properties":{"name":"Nepal"},"geometry":{"type":"MultiPolygon","coordinates":[[[[88.11,27.87],[87.98,27.13],[88.16,26.81],[88.05,26.43],[87.29,26.36],[87.02,26.56],[86.7,26.44],[86.01,26.65],[85.79,26.6],[85.65,26.83],[85.19,26.77],[84.69,27.04],[84.61,27.3],[84.09,27.49],[83.29,27.37],[82.73,27.52],[82.68,27.67],[81.85,27.87],[80.05,28.87],[80.32,29.57],[80.61,29.96],[80.91,30.17],[81.18,30.04],[81.42,30.34],[81.85,30.36],[82.85,29.68],[83.16,29.61],[83.58,29.18],[84.1,29.22],[84.23,28.91],[84.8,28.56],[85.16,28.59],[85.12,28.32],[85.68,28.28],[85.99,27.91],[86.14,28.11],[86.41,27.93],[86.61,28.1],[87.14,27.84],[88.11,27.87]]]]}},{"type":"Feature","properties":{"name":"Mongolia"},"geometry":{"type":"MultiPolygon","coordinates":[[[[87.81,49.16],[88.12,49.26],[88.19,49.45],[89.11,49.5],[89.65,49.72],[89.64,49.9],[90.05,50.09],[91.42,50.47],[91.8,50.69],[92.19,50.7],[92.35,50.86],[92.63,50.69],[92.94,50.78],[93.1,50.6],[94.25,50.56],[94.35,50.22],[94.61,50.02],[95.52,49.91],[96.07,50.0],[97.36,49.74],[98.0,50.01],[98.25,50.3],[98.28,50.53],[98.03,50.64],[97.84,51.05],[98.04,51.45],[98.64,51.8],[98.89,52.12],[99.92,51.76],[102.11,51.35],[102.29,50.59],[103.3,50.2],[104.08,50.15],[105.38,50.47],[106.71,50.31],[107.23,49.99],[107.92,49.95],[107.97,49.65],[108.61,49.32],[110.71,49.14],[111.34,49.36],[112.81,49.52],[113.57,50.01],[114.3,50.27],[114.74,50.23],[115.43,49.9],[116.35,49.98],[116.68,49.82],[115.82,48.58],[115.79,48.25],[115.53,48.13],[115.62,47.87],[115.9,47.69],[116.23,47.86],[116.76,47.87],[117.35,47.65],[117.77,47.99],[118.5,47.98],[119.71,47.15],[119.9,46.73],[119.71,46.61],[118.84,46.76],[117.74,46.52],[117.44,46.59],[117.33,46.36],[116.56,46.29],[116.2,45.74],[115.68,45.46],[114.56,45.39],[114.08,44.97],[113.59,44.75],[112.71,44.88],[112.41,45.06],[111.9,45.06],[111.62,44.83],[111.4,44.37],[111.93,43.71],[111.01,43.34],[110.4,42.77],[109.34,42.44],[106.77,42.29],[104.98,41.6],[104.5,41.66],[104.5,41.88],[103.71,41.75],[103.07,42.01],[102.16,42.16],[101.5,42.54],[99.98,42.68],[99.47,42.57],[97.21,42.79],[96.39,42.72],[96.3,42.93],[95.86,43.28],[95.53,43.95],[95.33,44.04],[95.35,44.28],[94.71,44.35],[93.52,44.94],[90.88,45.2],[90.66,45.53],[91.0,46.04],[90.91,46.27],[91.03,46.57],[90.33,47.66],[90.03,47.88],[89.78,47.83],[89.48,48.03],[89.05,48.0],[88.58,48.22],[88.52,48.38],[87.98,48.56],[88.06,48.71],[87.74,48.88],[87.87,49.0],[87.81,49.16]]]]}},{"type":"Feature","properties":{"name":"Malaysia"},"geometry":{"type":"MultiPolygon","coordinates":[[[[100.12,6.44],[100.26,6.68],[100.35,6.55],[100.75,6.46],[100.87,6.25],[101.05,6.24],[100.98,5.77],[101.11,5.64],[101.56,5.91],[101.79,5.78],[102.1,6.24],[102.27,6.2],[103.1,5.41],[103.45,4.67],[103.36,3.77],[103.44,2.93],[103.81,2.58],[104.22,1.72],[104.25,1.39],[103.98,1.62],[103.99,1.45],[103.48,1.33],[103.36,1.55],[102.73,1.86],[101.3,2.89],[101.3,3.25],[100.72,3.97],[100.8,4.02],[100.61,4.37],[100.34,5.98],[100.12,6.44]]],[[[117.57,4.17],[116.51,4.37],[115.86,4.35],[115.68,4.19],[115.45,3.03],[115.12,2.89],[115.18,2.52],[114.79,2.25],[114.83,1.98],[114.51,1.45],[113.9,1.43],[113.62,1.24],[113.01,1.43],[112.94,1.57],[112.48,1.56],[112.19,1.44],[112.08,1.14],[111.81,1.01],[111.1,1.05],[110.51,0.86],[109.74,1.52],[109.55,1.85],[109.63,2.03],[109.86,1.76],[110.35,1.72],[111.22,1.4],[111.03,1.56],[111.25,2.06],[111.24,2.44],[111.44,2.38],[111.44,2.63],[111.62,2.82],[113.04,3.21],[113.92,4.24],[114.01,4.58],[114.65,4.04],[114.84,4.39],[114.75,4.72],[115.03,4.9],[115.11,4.39],[115.32,4.37],[115.14,4.9],[115.55,5.09],[115.42,5.41],[115.6,5.6],[115.88,5.61],[116.78,6.99],[116.79,6.61],[117.13,6.97],[117.25,6.92],[117.29,6.68],[117.65,6.47],[117.64,6.0],[117.5,5.88],[118.0,6.05],[118.12,5.86],[117.93,5.79],[117.97,5.71],[118.35,5.81],[118.59,5.59],[119.26,5.37],[119.13,5.1],[118.26,4.99],[118.19,4.83],[118.56,4.5],[118.55,4.38],[118.01,4.25],[117.7,4.34],[117.57,4.17]]],[[[104.22,2.73],[104.13,2.77],[104.18,2.87],[104.22,2.73]]],[[[100.29,5.29],[100.19,5.28],[100.25,5.47],[100.29,5.29]]],[[[99.85,6.47],[99.92,6.36],[99.74,6.26],[99.65,6.42],[99.85,6.47]]],[[[117.14,7.17],[117.08,7.12],[117.06,7.26],[117.26,7.35],[117.14,7.17]]],[[[117.88,4.19],[117.65,4.17],[117.71,4.26],[117.88,4.19]]]]}},{"type":"Feature","properties":{"name":"Laos"},"geometry":{"type":"MultiPolygon","coordinates":[[[[102.13,22.38],[102.66,21.68],[102.82,21.81],[102.95,21.68],[102.85,21.27],[103.1,20.89],[103.64,20.7],[104.1,20.95],[104.58,20.65],[104.37,20.44],[104.85,20.2],[104.93,20.02],[104.59,19.62],[104.03,19.68],[104.06,19.48],[103.89,19.3],[105.15,18.65],[105.11,18.41],[106.5,16.95],[106.66,16.49],[106.85,16.52],[107.4,16.04],[107.17,15.8],[107.65,15.26],[107.41,14.56],[106.82,14.31],[106.5,14.58],[106.23,14.48],[105.98,14.34],[106.12,14.05],[106.07,13.92],[105.25,14.2],[105.18,14.35],[105.5,14.59],[105.49,15.26],[105.64,15.66],[104.82,16.47],[104.82,17.3],[103.95,18.32],[103.29,18.41],[103.05,18.03],[102.66,17.82],[102.1,18.21],[101.17,17.5],[100.91,17.58],[101.14,18.14],[101.05,18.44],[101.29,18.98],[101.21,19.55],[100.97,19.61],[100.63,19.5],[100.42,19.64],[100.54,20.13],[100.32,20.39],[100.11,20.26],[100.18,20.59],[100.33,20.8],[100.62,20.86],[100.54,20.99],[100.7,21.25],[101.14,21.57],[101.25,21.2],[101.8,21.21],[101.74,21.83],[101.52,22.25],[101.74,22.5],[102.13,22.38]]]]}},{"type":"Feature","properties":{"name":"Kyrgyzstan"},"geometry":{"type":"MultiPolygon","coordinates":[[[[70.96,40.24],[71.3,40.29],[71.69,40.15],[72.13,40.44],[72.36,40.4],[72.4,40.58],[72.6,40.53],[73.14,40.81],[72.19,41.03],[72.16,41.17],[71.88,41.2],[71.66,41.54],[71.59,41.33],[71.42,41.34],[71.39,41.12],[70.86,41.22],[70.69,41.45],[70.18,41.54],[71.23,42.16],[70.89,42.34],[71.42,42.78],[72.28,42.76],[73.49,42.41],[73.42,42.59],[73.56,43.0],[74.21,43.24],[75.37,42.84],[76.99,42.97],[79.13,42.78],[79.43,42.48],[79.92,42.41],[80.25,42.06],[78.74,41.56],[78.36,41.37],[78.12,41.08],[76.91,41.02],[76.32,40.35],[76.26,40.43],[75.68,40.31],[75.56,40.63],[75.11,40.45],[74.84,40.48],[74.83,40.33],[73.99,40.04],[73.84,39.8],[73.91,39.58],[73.72,39.46],[72.56,39.38],[72.23,39.21],[72.04,39.35],[71.78,39.28],[71.47,39.6],[70.8,39.39],[70.5,39.59],[69.3,39.52],[69.28,39.92],[69.48,39.92],[69.53,40.1],[69.97,40.2],[70.52,39.95],[70.96,40.24]]]]}},{"type":"Feature","properties":{"name":"Kazakhstan"},"geometry":{"type":"MultiPolygon","coordinates":[[[[70.95,42.25],[69.15,41.43],[68.58,40.88],[68.57,40.62],[68.42,40.62],[68.05,40.81],[68.11,41.03],[67.94,41.2],[66.71,41.18],[66.5,41.99],[66.01,42.0],[66.1,42.99],[65.8,42.88],[65.5,43.31],[64.91,43.71],[64.44,43.55],[63.21,43.63],[61.99,43.49],[61.01,44.39],[58.56,45.56],[55.98,44.99],[55.98,41.32],[55.43,41.3],[54.85,41.97],[54.12,42.34],[53.06,42.15],[52.49,41.78],[52.6,42.76],[51.9,42.87],[51.62,43.16],[51.3,43.17],[51.3,43.48],[50.83,44.19],[50.33,44.33],[50.25,44.46],[50.41,44.62],[51.54,44.53],[51.01,44.92],[51.42,45.36],[53.2,45.33],[52.77,45.57],[53.14,46.19],[53.06,46.48],[53.17,46.67],[53.07,46.86],[52.48,46.99],[52.14,46.83],[51.18,47.11],[49.89,46.6],[49.35,46.52],[49.23,46.34],[48.61,46.57],[48.52,46.73],[48.96,46.77],[48.17,47.71],[47.29,47.74],[47.09,47.95],[47.06,48.23],[46.66,48.41],[46.7,48.81],[47.03,49.15],[46.8,49.37],[46.82,49.5],[47.5,50.4],[47.71,50.38],[48.33,49.86],[48.76,49.93],[48.84,50.01],[48.63,50.61],[49.32,50.85],[49.5,51.08],[50.31,51.32],[50.79,51.73],[51.16,51.65],[51.34,51.48],[52.22,51.71],[52.57,51.48],[53.34,51.48],[54.14,51.04],[54.56,50.54],[54.65,50.66],[54.55,50.95],[54.64,51.01],[55.69,50.58],[56.49,51.02],[57.01,51.07],[57.44,50.89],[57.84,51.09],[58.36,51.06],[58.88,50.69],[59.45,50.62],[59.52,50.49],[59.81,50.58],[60.06,50.85],[60.42,50.68],[60.94,50.7],[61.39,50.86],[61.55,51.32],[60.46,51.65],[60.03,51.93],[60.99,52.34],[60.77,52.68],[61.05,52.97],[62.08,53.01],[61.66,53.23],[61.2,53.29],[61.23,53.45],[61.53,53.52],[60.98,53.62],[61.23,54.02],[61.93,53.95],[64.46,54.38],[65.09,54.34],[65.48,54.62],[68.16,54.98],[68.21,55.16],[68.98,55.39],[70.18,55.16],[70.74,55.31],[71.19,54.6],[71.09,54.21],[72.0,54.21],[72.19,54.33],[72.45,53.94],[72.62,54.13],[73.23,53.96],[73.67,54.06],[73.68,53.93],[73.31,53.71],[73.41,53.45],[73.86,53.62],[74.35,53.49],[74.45,53.65],[75.22,53.89],[75.44,54.09],[76.84,54.44],[76.65,54.15],[76.42,54.15],[76.48,54.02],[77.86,53.27],[79.99,50.77],[80.42,50.95],[80.45,51.18],[80.74,51.29],[81.13,51.19],[81.07,50.97],[81.39,50.96],[81.47,50.74],[82.49,50.73],[83.36,50.99],[83.95,50.77],[84.32,50.24],[84.99,50.06],[85.23,49.62],[86.18,49.5],[86.68,49.78],[86.63,49.56],[87.32,49.09],[86.81,49.05],[86.55,48.53],[85.75,48.39],[85.53,47.92],[85.66,47.25],[85.48,47.06],[84.79,46.83],[84.67,46.97],[84.02,46.97],[83.03,47.19],[82.32,45.59],[82.61,45.42],[82.52,45.13],[81.94,45.16],[81.69,45.35],[79.87,44.88],[80.48,44.71],[80.36,44.55],[80.36,44.1],[80.79,43.16],[80.39,43.04],[80.54,42.87],[80.2,42.73],[80.21,42.19],[79.92,42.41],[79.43,42.48],[79.13,42.78],[76.99,42.97],[75.37,42.84],[74.21,43.24],[73.56,43.0],[73.42,42.59],[73.49,42.41],[71.76,42.82],[71.26,42.73],[70.89,42.34],[70.95,42.25]]]]}},{"type":"Feature","properties":{"name":"Japan"},"geometry":{"type":"MultiPolygon","coordinates":[[[[133.37,36.2],[133.24,36.18],[133.21,36.29],[133.3,36.34],[133.37,36.2]]],[[[138.34,37.82],[138.23,37.83],[138.32,37.97],[138.25,38.08],[138.5,38.32],[138.45,38.08],[138.58,38.07],[138.34,37.82]]],[[[134.93,34.29],[134.82,34.2],[134.67,34.29],[135.0,34.54],[134.93,34.29]]],[[[130.62,30.26],[130.45,30.26],[130.39,30.39],[130.64,30.39],[130.62,30.26]]],[[[130.96,30.4],[130.87,30.44],[131.06,30.83],[130.96,30.4]]],[[[130.08,32.23],[129.96,32.24],[130.01,32.52],[130.17,32.54],[130.2,32.34],[130.08,32.23]]],[[[129.28,34.12],[129.19,34.15],[129.21,34.32],[129.34,34.28],[129.28,34.12]]],[[[129.39,34.35],[129.27,34.37],[129.45,34.69],[129.39,34.35]]],[[[128.67,32.78],[128.89,32.65],[128.69,32.6],[128.67,32.78]]],[[[130.38,32.42],[130.24,32.46],[130.46,32.52],[130.38,32.42]]],[[[139.48,42.08],[139.43,42.2],[139.56,42.24],[139.48,42.08]]],[[[129.08,32.84],[129.0,32.95],[129.11,33.13],[129.18,32.99],[129.08,32.84]]],[[[129.49,33.22],[129.37,33.18],[129.57,33.36],[129.49,33.22]]],[[[129.8,33.75],[129.67,33.74],[129.72,33.86],[129.8,33.75]]],[[[132.27,33.95],[132.44,33.91],[132.21,33.87],[132.27,33.95]]],[[[143.82,44.12],[144.72,43.93],[145.37,44.33],[145.13,43.87],[145.14,43.66],[145.34,43.3],[145.83,43.39],[144.92,43.0],[143.97,42.88],[143.43,42.42],[143.24,42.0],[141.85,42.58],[141.41,42.55],[140.99,42.34],[140.71,42.56],[140.48,42.56],[140.33,42.29],[141.15,41.81],[140.66,41.82],[140.27,41.46],[140.04,41.47],[140.11,41.91],[139.84,42.28],[139.86,42.58],[140.43,42.95],[140.39,43.3],[141.14,43.18],[141.37,43.28],[141.4,43.64],[141.76,44.48],[141.78,44.72],[141.58,45.16],[141.67,45.4],[141.94,45.51],[142.88,44.67],[143.82,44.12]]],[[[131.17,33.6],[131.7,33.6],[131.54,33.27],[131.9,33.25],[131.85,33.12],[132.0,32.88],[131.66,32.47],[131.34,31.4],[131.07,31.44],[131.1,31.26],[130.69,31.02],[130.78,31.71],[130.56,31.56],[130.59,31.18],[130.15,31.41],[130.29,31.45],[130.32,31.6],[130.19,31.77],[130.19,32.09],[130.64,32.62],[130.5,32.66],[130.55,32.83],[130.24,33.18],[130.13,33.1],[130.18,32.85],[130.33,32.85],[130.34,32.7],[130.05,32.77],[129.77,32.57],[129.83,32.73],[129.68,33.06],[129.99,32.85],[129.58,33.24],[130.72,33.93],[130.95,33.87],[131.17,33.6]]],[[[134.36,34.26],[134.64,34.23],[134.74,33.82],[134.38,33.61],[134.18,33.25],[133.96,33.45],[133.63,33.51],[133.29,33.36],[132.8,32.75],[132.64,32.76],[132.71,32.9],[132.5,32.92],[132.41,33.43],[132.03,33.34],[132.64,33.69],[132.94,34.1],[133.19,33.93],[133.58,34.02],[133.6,34.24],[133.95,34.35],[134.36,34.26]]],[[[141.23,41.37],[141.46,41.4],[141.43,40.72],[141.8,40.29],[141.99,39.79],[141.98,39.43],[141.9,39.11],[141.55,38.76],[141.47,38.4],[141.11,38.34],[140.96,38.15],[141.0,37.11],[140.57,36.23],[140.87,35.72],[140.46,35.51],[140.35,35.18],[139.84,34.91],[139.83,35.3],[140.1,35.59],[139.83,35.66],[139.65,35.41],[139.68,35.15],[139.47,35.3],[139.25,35.28],[139.09,34.84],[138.84,34.62],[138.8,34.97],[138.9,35.03],[138.72,35.12],[138.19,34.6],[137.06,34.58],[137.28,34.77],[136.96,34.83],[136.87,34.73],[136.9,35.04],[136.8,35.05],[136.53,34.68],[136.88,34.43],[136.85,34.32],[136.33,34.18],[135.92,33.56],[135.7,33.49],[135.45,33.55],[135.13,34.01],[135.1,34.29],[135.42,34.62],[134.74,34.77],[134.25,34.71],[133.14,34.3],[132.31,34.32],[132.15,33.84],[131.74,34.05],[130.92,33.98],[130.89,34.26],[131.0,34.39],[131.35,34.41],[132.92,35.51],[133.98,35.51],[135.17,35.75],[135.33,35.53],[135.9,35.61],[136.1,35.77],[136.07,36.12],[136.7,36.74],[136.72,37.2],[136.84,37.38],[137.32,37.52],[136.9,37.12],[137.02,36.84],[137.25,36.75],[138.32,37.22],[138.89,37.84],[139.36,38.1],[139.8,38.88],[140.06,39.62],[139.99,39.86],[139.74,39.92],[140.01,40.26],[139.97,40.67],[140.28,40.85],[140.39,41.23],[140.63,41.2],[140.75,40.83],[140.94,40.94],[141.12,40.88],[141.24,41.21],[140.8,41.14],[140.8,41.25],[140.94,41.51],[141.23,41.37]]],[[[124.29,24.52],[124.14,24.35],[124.08,24.44],[124.29,24.52]]],[[[123.89,24.28],[123.68,24.32],[123.77,24.41],[123.93,24.36],[123.89,24.28]]],[[[125.44,24.74],[125.27,24.73],[125.28,24.87],[125.44,24.74]]],[[[128.26,26.65],[127.87,26.44],[127.8,26.15],[127.65,26.09],[127.91,26.69],[128.1,26.67],[128.25,26.88],[128.26,26.65]]],[[[129.0,27.72],[128.9,27.73],[128.91,27.9],[129.0,27.72]]],[[[129.45,28.21],[129.37,28.13],[129.16,28.25],[129.69,28.52],[129.45,28.21]]]]}},{"type":"Feature","properties":{"name":"Indonesia"},"geometry":{"type":"MultiPolygon","coordinates":[[[[97.48,1.47],[97.93,0.97],[97.82,0.56],[97.68,0.6],[97.08,1.43],[97.36,1.54],[97.48,1.47]]],[[[99.16,-1.78],[98.83,-1.61],[98.6,-1.2],[98.68,-0.97],[98.93,-0.95],[99.27,-1.63],[99.16,-1.78]]],[[[116.64,-8.61],[116.51,-8.82],[116.59,-8.89],[115.86,-8.79],[116.08,-8.74],[116.06,-8.44],[116.4,-8.2],[116.72,-8.34],[116.64,-8.61]]],[[[115.45,-8.16],[115.7,-8.41],[115.14,-8.85],[115.06,-8.57],[114.61,-8.38],[114.47,-8.17],[114.94,-8.19],[115.15,-8.07],[115.45,-8.16]]],[[[106.05,-1.67],[106.37,-2.46],[106.82,-2.57],[106.61,-2.9],[106.67,-3.07],[106.0,-2.82],[105.79,-2.18],[105.13,-2.04],[105.46,-1.57],[105.59,-1.53],[105.7,-1.73],[105.72,-1.53],[105.91,-1.5],[106.05,-1.67]]],[[[123.18,-4.55],[123.2,-4.82],[123.06,-4.75],[122.97,-5.14],[123.19,-5.33],[122.97,-5.41],[122.81,-5.67],[122.65,-5.66],[122.59,-5.49],[122.77,-5.21],[122.85,-4.62],[123.07,-4.39],[123.18,-4.55]]],[[[122.65,-5.27],[122.56,-5.39],[122.28,-5.32],[122.37,-4.77],[122.7,-4.62],[122.76,-4.93],[122.65,-5.27]]],[[[108.32,3.69],[108.1,3.7],[108.24,3.81],[108.0,3.98],[108.25,4.22],[108.39,3.99],[108.32,3.69]]],[[[108.21,-3.0],[108.06,-3.23],[107.86,-3.09],[107.61,-3.21],[107.67,-2.57],[108.22,-2.7],[108.21,-3.0]]],[[[135.38,-0.65],[135.89,-0.73],[136.38,-1.09],[136.16,-1.21],[135.92,-1.18],[135.75,-0.82],[135.65,-0.88],[135.38,-0.65]]],[[[135.47,-1.59],[136.89,-1.8],[136.23,-1.89],[135.47,-1.59]]],[[[130.81,-0.0],[131.28,-0.15],[131.26,-0.37],[130.95,-0.34],[130.68,-0.08],[130.9,-0.42],[130.24,-0.21],[130.36,-0.07],[130.81,-0.0]]],[[[128.45,2.05],[128.3,2.03],[128.22,2.3],[128.6,2.6],[128.62,2.22],[128.45,2.05]]],[[[128.15,-1.66],[127.56,-1.73],[127.4,-1.59],[127.65,-1.33],[128.15,-1.66]]],[[[126.06,-2.45],[125.86,-2.08],[125.92,-1.97],[126.06,-2.45]]],[[[126.02,-1.79],[126.33,-1.82],[125.96,-1.92],[125.43,-1.94],[125.39,-1.84],[126.02,-1.79]]],[[[124.97,-1.71],[125.19,-1.71],[125.31,-1.88],[124.42,-2.01],[124.33,-1.86],[124.42,-1.66],[124.97,-1.71]]],[[[131.33,-8.0],[131.11,-8.0],[131.14,-7.68],[131.64,-7.11],[131.74,-7.2],[131.62,-7.63],[131.33,-8.0]]],[[[126.8,-7.67],[126.47,-7.95],[126.04,-7.89],[125.8,-7.98],[125.98,-7.66],[126.61,-7.57],[126.8,-7.67]]],[[[124.58,-8.14],[125.05,-8.18],[125.13,-8.33],[124.44,-8.44],[124.39,-8.25],[124.58,-8.14]]],[[[131.0,-1.32],[130.78,-1.26],[130.67,-0.96],[131.03,-0.92],[131.0,-1.32]]],[[[96.49,5.23],[97.55,5.21],[98.25,4.41],[98.31,4.09],[99.73,3.18],[100.52,2.19],[100.89,1.95],[100.83,2.24],[101.05,2.26],[101.48,1.69],[102.02,1.44],[102.39,0.84],[102.95,0.66],[103.01,0.42],[102.55,0.22],[103.34,0.51],[103.67,0.29],[103.79,0.05],[103.43,-0.19],[103.44,-0.58],[103.72,-0.89],[104.36,-1.04],[104.52,-1.82],[104.85,-2.09],[104.65,-2.6],[104.97,-2.37],[105.4,-2.38],[106.04,-3.11],[105.84,-3.61],[105.89,-5.01],[105.75,-5.82],[105.35,-5.55],[105.08,-5.75],[104.64,-5.52],[104.68,-5.89],[104.6,-5.9],[103.83,-5.08],[102.54,-4.15],[102.13,-3.6],[101.58,-3.17],[100.89,-2.25],[100.86,-1.93],[100.31,-0.83],[99.67,0.05],[99.16,0.35],[98.6,1.86],[97.7,2.36],[97.59,2.85],[96.97,3.58],[96.44,3.82],[95.43,4.87],[95.21,5.28],[95.28,5.59],[95.74,5.58],[96.13,5.29],[96.49,5.23]]],[[[122.78,-8.61],[121.04,-8.94],[120.55,-8.8],[119.91,-8.86],[119.81,-8.7],[119.87,-8.42],[120.61,-8.24],[121.44,-8.58],[121.97,-8.46],[122.32,-8.63],[122.85,-8.3],[122.92,-8.22],[122.76,-8.19],[122.85,-8.09],[123.01,-8.33],[122.78,-8.61]]],[[[120.01,-9.37],[120.29,-9.65],[120.56,-9.72],[120.8,-10.11],[120.44,-10.29],[119.6,-9.77],[119.04,-9.67],[118.96,-9.52],[119.19,-9.38],[120.01,-9.37]]],[[[118.24,-8.32],[118.61,-8.28],[118.71,-8.41],[118.93,-8.3],[119.08,-8.73],[118.43,-8.86],[118.38,-8.67],[118.19,-8.84],[117.51,-9.01],[117.06,-9.1],[116.79,-9.01],[116.84,-8.53],[117.16,-8.37],[117.57,-8.43],[117.81,-8.71],[117.97,-8.73],[118.23,-8.59],[117.81,-8.34],[117.76,-8.15],[118.12,-8.12],[118.24,-8.32]]],[[[124.89,1.0],[124.43,0.47],[123.75,0.31],[123.27,0.33],[123.0,0.49],[121.01,0.44],[120.58,0.53],[120.19,0.27],[120.01,-0.2],[120.06,-0.56],[120.67,-1.37],[121.15,-1.34],[121.58,-0.83],[121.97,-0.93],[122.28,-0.76],[122.89,-0.76],[122.83,-0.66],[123.17,-0.57],[123.43,-0.78],[123.38,-1.0],[122.9,-0.9],[122.25,-1.56],[121.65,-1.9],[121.36,-1.88],[122.29,-2.91],[122.4,-3.2],[122.25,-3.62],[122.69,-4.08],[122.85,-4.06],[122.87,-4.39],[122.11,-4.54],[122.04,-4.83],[121.59,-4.76],[121.49,-4.58],[121.62,-4.09],[120.89,-3.52],[121.05,-3.17],[121.05,-2.75],[120.65,-2.67],[120.26,-2.95],[120.44,-3.71],[120.42,-4.62],[120.28,-5.15],[120.43,-5.59],[119.95,-5.58],[119.72,-5.69],[119.56,-5.61],[119.36,-5.31],[119.62,-4.03],[119.47,-3.51],[118.99,-3.54],[118.87,-3.4],[118.78,-2.72],[119.09,-2.48],[119.32,-1.93],[119.31,-1.41],[119.51,-0.91],[119.71,-0.68],[119.84,-0.86],[119.72,-0.09],[120.27,0.97],[120.6,0.85],[120.87,1.25],[121.08,1.33],[121.59,1.07],[122.44,1.02],[122.84,0.85],[123.07,0.94],[123.93,0.85],[124.53,1.23],[124.99,1.7],[125.23,1.5],[124.89,1.0]]],[[[107.37,-6.01],[107.67,-6.22],[108.33,-6.29],[108.68,-6.79],[110.43,-6.95],[110.83,-6.42],[111.18,-6.69],[111.54,-6.65],[112.09,-6.89],[112.54,-6.93],[112.79,-7.3],[112.79,-7.55],[113.01,-7.66],[114.07,-7.63],[114.41,-7.79],[114.39,-8.41],[114.58,-8.77],[113.25,-8.29],[112.68,-8.41],[111.51,-8.31],[110.61,-8.15],[109.28,-7.7],[108.22,-7.78],[107.28,-7.47],[106.46,-7.37],[106.52,-7.05],[105.94,-6.86],[105.26,-6.84],[105.27,-6.73],[105.37,-6.66],[105.48,-6.78],[106.08,-5.91],[106.83,-6.1],[107.05,-5.9],[107.37,-6.01]]],[[[109.63,2.03],[109.54,1.9],[109.65,1.61],[110.51,0.86],[111.1,1.05],[111.81,1.01],[112.08,1.14],[112.19,1.44],[112.48,1.56],[112.94,1.57],[113.01,1.43],[113.62,1.24],[113.9,1.43],[114.51,1.45],[114.83,1.98],[114.79,2.25],[115.18,2.52],[115.12,2.89],[115.45,3.03],[115.68,4.19],[115.86,4.35],[117.1,4.34],[117.57,4.17],[117.47,4.08],[117.78,3.69],[117.06,3.62],[117.35,3.43],[117.35,3.19],[117.61,3.06],[117.57,2.93],[118.07,2.32],[117.79,2.03],[118.98,0.98],[118.53,0.81],[118.2,0.87],[117.91,1.1],[117.96,0.89],[117.75,0.73],[117.52,0.24],[117.46,-0.32],[117.56,-0.77],[116.91,-1.22],[116.74,-1.04],[116.75,-1.33],[116.28,-1.78],[116.42,-1.78],[116.45,-1.92],[116.31,-2.14],[116.57,-2.3],[116.53,-2.51],[116.32,-2.55],[116.33,-2.9],[116.17,-2.93],[116.26,-3.13],[115.96,-3.6],[114.69,-4.17],[114.53,-3.38],[114.34,-3.44],[114.34,-3.24],[114.24,-3.36],[114.08,-3.28],[113.71,-3.46],[113.61,-3.2],[113.34,-3.25],[113.03,-2.93],[112.97,-3.19],[112.76,-3.32],[112.28,-3.32],[111.86,-3.55],[111.82,-3.06],[111.69,-2.89],[110.93,-3.07],[110.83,-3.0],[110.9,-2.91],[110.7,-3.02],[110.57,-2.89],[110.26,-2.97],[110.1,-2.0],[109.96,-1.86],[109.98,-1.27],[109.79,-1.01],[109.26,-0.81],[109.37,-0.64],[109.12,-0.39],[109.26,0.03],[108.94,0.36],[108.92,0.91],[108.96,1.13],[109.13,1.25],[109.01,1.24],[109.08,1.5],[109.38,1.92],[109.63,2.03]]],[[[127.73,0.85],[127.88,0.83],[128.22,1.4],[128.69,1.57],[128.7,1.11],[128.3,0.88],[128.26,0.73],[128.9,0.22],[127.98,0.47],[127.89,0.3],[127.98,-0.25],[128.43,-0.89],[128.05,-0.71],[127.69,-0.24],[127.71,0.29],[127.54,0.61],[127.61,0.85],[127.43,1.14],[127.63,1.84],[128.04,2.2],[127.89,1.83],[128.01,1.7],[128.01,1.33],[127.65,1.01],[127.73,0.85]]],[[[129.75,-2.87],[130.57,-3.13],[130.86,-3.57],[130.81,-3.86],[129.84,-3.33],[129.51,-3.33],[129.47,-3.45],[128.86,-3.23],[128.52,-3.45],[128.13,-3.16],[127.9,-3.5],[127.88,-3.22],[128.2,-2.87],[128.99,-2.83],[129.17,-2.93],[129.48,-2.79],[129.75,-2.87]]],[[[126.86,-3.09],[127.24,-3.47],[127.23,-3.63],[126.94,-3.76],[126.55,-3.77],[126.06,-3.42],[126.09,-3.11],[126.86,-3.09]]],[[[124.92,-8.94],[124.94,-9.05],[125.15,-9.04],[124.96,-9.21],[125.07,-9.51],[124.96,-9.67],[124.43,-10.15],[123.64,-10.31],[123.72,-10.08],[123.59,-9.97],[123.71,-9.61],[124.04,-9.34],[124.32,-9.41],[124.44,-9.19],[124.92,-8.94]]],[[[134.75,-5.71],[134.71,-6.3],[134.44,-6.33],[134.15,-6.06],[134.3,-6.01],[134.34,-5.83],[134.21,-5.71],[134.34,-5.71],[134.57,-5.43],[134.75,-5.71]]],[[[134.54,-6.44],[134.32,-6.85],[134.09,-6.83],[134.11,-6.47],[134.19,-6.46],[134.11,-6.19],[134.54,-6.44]]],[[[138.54,-8.27],[138.3,-8.41],[137.65,-8.39],[138.08,-7.57],[138.77,-7.39],[138.99,-7.7],[138.54,-8.27]]],[[[140.97,-2.61],[140.97,-6.35],[140.86,-6.74],[140.98,-6.91],[140.98,-9.12],[140.0,-8.2],[140.12,-7.92],[139.93,-8.1],[139.39,-8.19],[139.25,-7.98],[138.89,-8.24],[139.09,-7.59],[138.75,-7.25],[139.18,-7.19],[138.85,-7.14],[138.6,-6.94],[138.86,-6.86],[138.44,-6.34],[138.3,-5.95],[138.37,-5.84],[138.2,-5.81],[138.34,-5.68],[138.09,-5.71],[138.06,-5.47],[137.28,-4.95],[136.62,-4.82],[135.98,-4.53],[135.2,-4.45],[134.68,-4.08],[134.71,-3.95],[134.89,-3.94],[134.27,-3.95],[134.15,-3.8],[133.97,-3.82],[133.68,-3.48],[133.84,-3.05],[133.7,-3.09],[133.65,-3.36],[133.52,-3.41],[133.4,-3.9],[133.25,-4.06],[132.91,-4.06],[132.75,-3.7],[132.87,-3.55],[132.75,-3.29],[131.97,-2.79],[132.23,-2.68],[132.72,-2.79],[133.19,-2.44],[133.7,-2.62],[133.9,-2.39],[133.79,-2.29],[133.92,-2.1],[132.96,-2.27],[132.31,-2.24],[132.02,-1.99],[131.93,-1.56],[131.0,-1.42],[131.26,-0.86],[131.8,-0.7],[132.39,-0.36],[132.86,-0.42],[133.47,-0.73],[133.97,-0.74],[134.11,-0.85],[134.07,-1.0],[134.26,-1.36],[134.11,-1.72],[134.19,-2.31],[134.46,-2.83],[134.48,-2.58],[134.63,-2.54],[134.89,-3.21],[135.25,-3.37],[135.49,-3.35],[135.86,-3.0],[136.39,-2.27],[137.07,-2.11],[137.17,-2.03],[137.12,-1.84],[137.81,-1.48],[139.79,-2.35],[140.62,-2.45],[140.75,-2.61],[140.97,-2.61]]],[[[138.9,-8.39],[138.56,-8.31],[138.8,-8.17],[138.9,-8.39]]],[[[101.71,2.08],[101.72,1.79],[101.5,1.73],[101.41,2.02],[101.71,2.08]]],[[[102.43,0.99],[102.28,1.08],[102.26,1.4],[102.44,1.23],[102.43,0.99]]],[[[102.49,1.46],[102.5,1.33],[102.02,1.61],[102.49,1.46]]],[[[103.03,0.75],[102.49,0.86],[102.51,1.09],[103.0,0.86],[103.03,0.75]]],[[[103.17,0.87],[102.7,1.05],[102.73,1.16],[103.17,0.87]]],[[[103.28,0.54],[103.14,0.55],[103.19,0.7],[103.28,0.54]]],[[[104.02,1.18],[104.14,1.17],[104.07,0.99],[103.93,1.07],[104.02,1.18]]],[[[104.59,1.22],[104.66,1.05],[104.58,0.83],[104.44,1.05],[104.25,1.01],[104.36,1.18],[104.59,1.22]]],[[[104.78,-0.18],[105.01,-0.28],[104.91,-0.32],[104.45,-0.19],[104.54,0.02],[104.78,-0.18]]],[[[104.47,-0.33],[104.59,-0.47],[104.36,-0.66],[104.26,-0.46],[104.47,-0.33]]],[[[103.74,-0.35],[103.46,-0.36],[103.55,-0.23],[103.74,-0.35]]],[[[109.71,-1.18],[109.46,-1.28],[109.48,-0.99],[109.74,-1.04],[109.71,-1.18]]],[[[113.84,-7.11],[113.13,-7.22],[112.73,-7.07],[112.87,-6.9],[113.97,-6.87],[114.08,-6.99],[113.84,-7.11]]],[[[127.25,-0.5],[127.12,-0.52],[127.13,-0.28],[127.29,-0.28],[127.25,-0.5]]],[[[127.57,-0.32],[127.68,-0.47],[127.6,-0.61],[127.88,-0.81],[127.76,-0.88],[127.46,-0.81],[127.47,-0.64],[127.3,-0.5],[127.33,-0.34],[127.57,-0.32]]],[[[132.81,-5.85],[132.68,-5.91],[132.63,-5.61],[132.81,-5.85]]],[[[128.28,-3.67],[127.92,-3.7],[128.26,-3.51],[128.28,-3.67]]],[[[126.82,4.03],[126.7,4.07],[126.81,4.26],[126.76,4.55],[126.92,4.29],[126.82,4.03]]],[[[125.66,3.44],[125.51,3.46],[125.47,3.73],[125.66,3.44]]],[[[130.86,-8.32],[131.02,-8.09],[131.18,-8.13],[130.86,-8.32]]],[[[129.84,-7.95],[129.71,-8.04],[129.61,-7.8],[129.81,-7.82],[129.84,-7.95]]],[[[127.82,-8.1],[128.12,-8.17],[128.02,-8.26],[127.82,-8.1]]],[[[130.35,-1.69],[130.42,-1.97],[130.25,-2.05],[129.74,-1.87],[130.35,-1.69]]],[[[102.37,-5.48],[102.11,-5.32],[102.37,-5.37],[102.37,-5.48]]],[[[100.43,-3.18],[100.47,-3.33],[100.35,-3.23],[100.2,-2.99],[100.2,-2.79],[100.45,-3.0],[100.43,-3.18]]],[[[100.2,-2.74],[100.01,-2.82],[99.99,-2.53],[100.2,-2.74]]],[[[99.84,-2.34],[99.61,-2.26],[99.57,-2.03],[99.84,-2.34]]],[[[98.46,-0.53],[98.31,-0.53],[98.43,-0.23],[98.32,-0.0],[98.54,-0.26],[98.46,-0.53]]],[[[96.46,2.36],[95.81,2.66],[95.72,2.83],[95.9,2.89],[96.42,2.52],[96.46,2.36]]],[[[122.04,-5.44],[121.81,-5.26],[121.91,-5.07],[122.04,-5.16],[122.04,-5.44]]],[[[123.21,-1.17],[123.24,-1.39],[123.43,-1.24],[123.51,-1.45],[123.27,-1.44],[123.17,-1.62],[123.15,-1.3],[122.89,-1.59],[122.81,-1.43],[122.91,-1.18],[123.21,-1.17]]],[[[121.86,-0.41],[121.88,-0.5],[121.66,-0.53],[121.86,-0.41]]],[[[120.53,-6.3],[120.49,-6.46],[120.44,-6.18],[120.48,-5.78],[120.53,-6.3]]],[[[115.38,-6.97],[115.22,-6.95],[115.24,-6.86],[115.52,-6.9],[115.38,-6.97]]],[[[116.3,-3.87],[116.09,-4.05],[116.02,-3.7],[116.12,-3.34],[116.27,-3.25],[116.3,-3.87]]],[[[122.95,-10.91],[122.83,-10.9],[122.85,-10.76],[123.37,-10.47],[123.42,-10.65],[122.95,-10.91]]],[[[124.29,-8.33],[124.15,-8.53],[123.93,-8.45],[124.24,-8.2],[124.29,-8.33]]],[[[123.92,-8.27],[123.55,-8.57],[123.23,-8.53],[123.48,-8.32],[123.39,-8.28],[123.78,-8.19],[123.92,-8.27]]],[[[123.32,-8.35],[123.03,-8.4],[123.22,-8.24],[123.32,-8.35]]],[[[105.76,2.86],[105.69,3.06],[105.84,2.98],[105.76,2.86]]],[[[108.89,2.91],[108.79,2.89],[108.89,3.0],[108.89,2.91]]],[[[112.72,-5.81],[112.59,-5.8],[112.69,-5.73],[112.72,-5.81]]],[[[105.25,-6.64],[105.12,-6.61],[105.26,-6.52],[105.25,-6.64]]],[[[97.33,2.08],[97.11,2.22],[97.29,2.2],[97.33,2.08]]],[[[123.6,-1.7],[123.48,-1.68],[123.53,-1.5],[123.6,-1.7]]],[[[123.24,-4.11],[123.08,-4.23],[122.97,-4.03],[123.21,-4.0],[123.24,-4.11]]],[[[119.46,-8.74],[119.45,-8.43],[119.56,-8.52],[119.46,-8.74]]],[[[117.65,4.17],[117.88,4.19],[117.92,4.05],[117.74,4.0],[117.65,4.17]]],[[[117.66,3.28],[117.55,3.43],[117.68,3.41],[117.66,3.28]]],[[[117.56,-8.37],[117.49,-8.18],[117.67,-8.15],[117.56,-8.37]]],[[[116.42,-3.46],[116.39,-3.64],[116.33,-3.54],[116.42,-3.46]]],[[[130.63,-0.53],[130.47,-0.49],[130.62,-0.42],[130.63,-0.53]]],[[[127.3,-0.78],[127.16,-0.76],[127.21,-0.62],[127.3,-0.78]]],[[[128.56,-3.59],[128.39,-3.64],[128.45,-3.51],[128.56,-3.59]]],[[[128.67,-7.18],[128.53,-7.13],[128.63,-7.07],[128.67,-7.18]]],[[[127.42,-7.62],[127.37,-7.51],[127.48,-7.53],[127.42,-7.62]]],[[[123.42,-10.3],[123.33,-10.26],[123.46,-10.14],[123.42,-10.3]]],[[[121.88,-10.59],[121.7,-10.56],[122.0,-10.45],[121.88,-10.59]]]]}},{"type":"Feature","properties":{"name":"India"},"geometry":{"type":"MultiPolygon","coordinates":[[[[68.17,23.86],[68.72,23.96],[68.78,24.31],[69.81,24.17],[70.49,24.41],[70.72,24.24],[71.04,24.4],[71.05,24.69],[70.65,25.42],[70.65,25.67],[70.26,25.71],[70.1,25.91],[70.15,26.51],[69.51,26.74],[69.54,27.12],[70.4,28.03],[70.8,27.71],[71.87,27.96],[72.34,28.75],[72.9,29.03],[73.38,29.93],[73.81,30.09],[73.93,30.22],[73.9,30.44],[74.63,31.03],[74.52,31.19],[74.56,31.82],[75.32,32.22],[75.23,32.37],[74.69,32.49],[74.66,32.76],[74.35,32.77],[74.3,32.99],[74.0,33.19],[74.15,33.51],[73.98,33.72],[74.25,33.95],[73.9,34.08],[73.97,34.24],[73.79,34.38],[73.96,34.65],[74.3,34.77],[75.71,34.5],[76.59,34.74],[77.8,35.5],[78.04,35.48],[78.01,35.25],[78.33,34.61],[78.97,34.3],[78.73,34.01],[78.8,33.5],[79.14,33.17],[79.22,32.5],[78.92,32.36],[78.7,32.6],[78.39,32.52],[78.74,31.96],[78.74,31.32],[79.11,31.4],[79.49,30.99],[80.15,30.79],[80.19,30.57],[81.01,30.16],[80.4,29.73],[80.07,28.83],[80.42,28.61],[80.59,28.65],[81.85,27.87],[82.68,27.67],[82.73,27.52],[83.29,27.37],[84.09,27.49],[84.61,27.3],[84.69,27.04],[85.24,26.75],[85.57,26.84],[85.79,26.6],[86.01,26.65],[86.7,26.44],[87.02,26.56],[87.29,26.36],[88.0,26.38],[88.16,26.72],[87.98,27.13],[88.14,27.95],[88.58,28.09],[88.8,28.01],[88.75,27.52],[88.89,27.32],[88.74,27.18],[88.86,26.96],[89.15,26.82],[89.76,26.7],[90.35,26.89],[90.74,26.77],[92.0,26.85],[92.08,27.29],[91.99,27.45],[91.59,27.56],[91.63,27.76],[92.55,27.88],[93.25,28.63],[93.76,28.73],[94.62,29.31],[95.39,29.04],[96.04,29.45],[96.36,29.25],[96.12,29.08],[96.14,28.92],[96.44,29.05],[96.58,28.76],[96.28,28.41],[96.6,28.46],[97.32,28.22],[97.34,27.94],[96.88,27.59],[97.1,27.12],[96.73,27.33],[96.19,27.26],[95.13,26.6],[95.13,26.04],[94.58,25.32],[94.71,25.05],[94.13,23.88],[93.33,24.06],[93.37,23.13],[93.16,23.03],[93.08,22.72],[93.15,22.23],[92.91,21.99],[92.72,22.13],[92.57,21.98],[92.25,23.68],[91.93,23.69],[91.75,23.05],[91.62,22.98],[91.44,23.2],[91.32,23.1],[91.17,23.58],[91.37,24.09],[91.88,24.2],[92.1,24.41],[92.23,24.88],[92.44,24.85],[92.47,24.94],[92.05,25.17],[90.44,25.16],[89.83,25.29],[89.82,25.94],[89.67,26.21],[89.55,26.01],[89.37,26.01],[89.02,26.41],[88.92,26.38],[88.97,26.25],[88.83,26.25],[88.37,26.56],[88.44,26.37],[88.08,25.89],[88.95,25.26],[88.46,25.19],[88.02,24.63],[88.72,24.27],[88.57,23.67],[88.72,23.25],[88.93,23.19],[88.85,23.04],[89.05,22.27],[88.95,21.94],[89.05,21.65],[88.86,21.74],[88.75,21.58],[88.64,22.12],[88.58,21.66],[88.45,21.61],[88.29,21.76],[88.25,21.62],[88.12,21.64],[88.2,22.14],[87.94,22.37],[88.16,22.12],[87.95,21.83],[87.1,21.5],[86.86,21.24],[86.98,20.7],[86.75,20.31],[86.38,20.01],[86.25,20.05],[86.22,19.9],[85.58,19.69],[85.5,19.89],[85.25,19.76],[85.18,19.59],[85.44,19.63],[84.77,19.13],[84.1,18.29],[82.36,17.1],[82.26,16.56],[81.76,16.33],[81.29,16.34],[80.98,15.76],[80.65,15.9],[80.29,15.71],[80.05,15.07],[80.31,13.49],[80.16,13.71],[80.06,13.61],[80.34,13.36],[80.23,12.69],[79.86,11.99],[79.69,11.31],[79.8,11.34],[79.85,11.2],[79.84,10.32],[79.31,10.26],[78.94,9.57],[79.02,9.33],[79.41,9.19],[78.98,9.27],[78.42,9.11],[78.19,8.89],[78.06,8.38],[77.52,8.08],[77.07,8.32],[76.55,8.9],[76.32,9.45],[76.24,9.93],[76.46,9.54],[76.35,9.92],[75.72,11.36],[74.95,12.56],[74.38,14.49],[73.95,15.07],[73.8,15.4],[73.93,15.4],[73.77,15.57],[73.83,15.66],[73.68,15.71],[73.34,16.46],[72.88,18.64],[73.01,19.02],[72.97,19.15],[72.83,18.98],[72.8,19.08],[72.81,19.3],[72.99,19.28],[72.79,19.36],[72.67,19.83],[72.89,20.67],[72.81,21.12],[72.62,21.37],[72.73,21.47],[72.61,21.46],[73.11,21.75],[72.54,21.7],[72.7,21.97],[72.52,21.98],[72.55,22.16],[72.81,22.23],[72.18,22.27],[72.27,22.09],[72.04,21.82],[72.21,21.73],[72.25,21.53],[72.02,21.16],[71.02,20.74],[70.49,20.84],[68.97,22.29],[69.05,22.44],[69.28,22.29],[70.18,22.57],[70.49,23.09],[70.34,22.94],[69.66,22.76],[69.24,22.85],[68.64,23.19],[68.42,23.57],[68.78,23.85],[68.23,23.6],[68.17,23.86]]],[[[93.89,6.83],[93.83,6.75],[93.66,7.02],[93.82,7.24],[93.89,6.83]]],[[[92.5,10.55],[92.37,10.55],[92.35,10.75],[92.51,10.9],[92.5,10.55]]],[[[92.69,11.38],[92.6,11.39],[92.64,11.51],[92.69,11.38]]],[[[92.72,11.54],[92.53,11.87],[92.79,12.23],[92.72,12.54],[92.86,13.36],[93.06,13.55],[93.07,13.22],[92.89,12.94],[92.99,12.54],[92.86,12.44],[92.72,11.54]]]]}},{"type":"Feature","properties":{"name":"China"},"geometry":{"type":"MultiPolygon","coordinates":[[[[121.86,31.49],[121.52,31.55],[121.21,31.81],[121.86,31.49]]],[[[122.3,29.96],[122.02,30.01],[121.97,30.14],[122.28,30.07],[122.3,29.96]]],[[[119.82,25.46],[119.7,25.43],[119.72,25.64],[119.82,25.46]]],[[[110.39,21.09],[110.52,21.08],[110.5,20.97],[110.28,21.0],[110.39,21.09]]],[[[121.25,28.09],[121.13,28.14],[121.21,28.2],[121.25,28.09]]],[[[107.97,21.51],[107.76,21.66],[107.35,21.61],[106.97,21.92],[106.66,21.98],[106.55,22.5],[106.78,22.78],[106.15,22.97],[105.84,22.92],[105.28,23.35],[104.86,23.14],[104.69,22.82],[104.37,22.7],[104.14,22.8],[103.94,22.54],[103.62,22.78],[103.49,22.59],[103.3,22.76],[102.98,22.45],[102.47,22.75],[102.13,22.38],[101.71,22.49],[101.52,22.25],[101.74,21.83],[101.73,21.16],[101.25,21.2],[101.08,21.76],[100.6,21.47],[100.15,21.48],[99.94,21.76],[99.92,22.03],[99.17,22.15],[99.51,22.96],[98.86,23.19],[98.68,23.91],[98.84,24.12],[98.21,24.11],[97.56,23.91],[97.71,24.23],[97.53,24.63],[97.74,24.87],[97.82,25.25],[98.01,25.29],[98.14,25.57],[98.33,25.59],[98.66,25.86],[98.56,26.07],[98.69,26.19],[98.74,26.7],[98.65,27.57],[98.45,27.66],[98.3,27.55],[98.1,28.14],[97.66,28.5],[97.54,28.51],[97.32,28.22],[96.6,28.46],[96.28,28.41],[96.58,28.76],[96.44,29.05],[96.14,28.92],[96.12,29.08],[96.36,29.25],[96.04,29.45],[95.39,29.04],[94.62,29.31],[93.76,28.73],[93.25,28.63],[93.12,28.4],[92.65,28.09],[92.66,27.95],[91.98,27.73],[91.63,27.76],[91.64,27.92],[91.27,28.08],[91.02,27.97],[89.9,28.29],[89.48,28.06],[88.89,27.32],[88.75,27.52],[88.8,28.01],[88.62,28.09],[87.62,27.82],[87.14,27.84],[86.61,28.1],[86.41,27.93],[86.14,28.11],[85.99,27.91],[85.68,28.28],[85.12,28.32],[85.16,28.59],[84.8,28.56],[84.23,28.91],[84.1,29.22],[83.58,29.18],[83.16,29.61],[82.22,30.06],[82.04,30.33],[81.42,30.34],[81.11,30.04],[80.68,30.41],[80.19,30.57],[80.15,30.79],[79.39,31.06],[79.11,31.4],[78.76,31.3],[78.74,31.96],[78.39,32.52],[78.7,32.6],[78.92,32.36],[79.22,32.5],[79.14,33.17],[78.8,33.5],[78.73,34.01],[78.97,34.3],[78.28,34.65],[78.01,35.25],[78.04,35.48],[77.09,35.55],[76.63,35.73],[76.55,35.89],[76.18,35.81],[75.91,36.05],[75.97,36.38],[75.84,36.65],[75.42,36.74],[75.35,36.91],[74.38,37.14],[75.12,37.39],[74.89,37.6],[74.84,38.4],[74.28,38.66],[74.03,38.54],[73.8,38.61],[73.63,39.45],[73.91,39.58],[73.84,39.8],[73.99,40.04],[74.83,40.33],[74.84,40.48],[75.11,40.45],[75.56,40.63],[75.68,40.31],[76.26,40.43],[76.32,40.35],[76.91,41.02],[78.12,41.08],[78.36,41.37],[78.74,41.56],[80.24,42.04],[80.17,42.67],[80.54,42.87],[80.39,43.04],[80.79,43.16],[80.36,44.1],[80.36,44.55],[80.48,44.71],[79.87,44.88],[81.69,45.35],[81.94,45.16],[82.52,45.13],[82.61,45.42],[82.32,45.59],[83.03,47.19],[84.02,46.97],[84.67,46.97],[84.79,46.83],[85.48,47.06],[85.66,47.25],[85.53,47.92],[85.69,48.31],[86.55,48.53],[86.72,48.7],[86.75,49.01],[87.05,49.11],[87.81,49.16],[87.87,49.0],[87.74,48.88],[88.06,48.71],[87.98,48.56],[88.52,48.38],[88.58,48.22],[89.05,48.0],[89.48,48.03],[90.31,47.68],[91.03,46.57],[90.91,46.27],[91.0,46.04],[90.66,45.53],[90.88,45.2],[93.52,44.94],[94.71,44.35],[95.35,44.28],[95.33,44.04],[95.53,43.95],[95.86,43.28],[96.3,42.93],[96.39,42.72],[97.21,42.79],[99.47,42.57],[99.98,42.68],[101.5,42.54],[102.16,42.16],[103.07,42.01],[103.71,41.75],[104.5,41.88],[104.5,41.66],[104.98,41.6],[106.77,42.29],[109.44,42.46],[110.4,42.77],[111.01,43.34],[111.93,43.71],[111.4,44.37],[111.62,44.83],[111.9,45.06],[112.41,45.06],[112.71,44.88],[113.59,44.75],[114.08,44.97],[114.56,45.39],[115.68,45.46],[116.2,45.74],[116.56,46.29],[117.33,46.36],[117.44,46.59],[117.74,46.52],[118.84,46.76],[119.33,46.61],[119.87,46.67],[119.9,46.86],[119.71,47.15],[118.5,47.98],[117.77,47.99],[117.35,47.65],[116.76,47.87],[116.23,47.86],[115.9,47.69],[115.62,47.87],[115.53,48.13],[115.79,48.25],[115.82,48.58],[116.68,49.82],[117.87,49.51],[118.45,49.84],[119.26,50.07],[119.35,50.28],[119.16,50.41],[120.07,51.6],[120.75,52.1],[120.66,52.57],[120.07,52.63],[120.09,52.79],[120.99,53.28],[123.31,53.56],[124.81,53.13],[125.08,53.2],[125.65,53.04],[126.34,52.36],[126.92,51.1],[127.31,50.71],[127.34,50.35],[127.59,50.21],[127.55,49.8],[128.0,49.57],[128.7,49.6],[129.07,49.37],[129.5,49.39],[130.2,48.89],[130.55,48.86],[130.55,48.6],[130.8,48.34],[130.73,48.02],[130.96,47.71],[132.48,47.71],[133.02,48.06],[134.29,48.37],[134.67,48.25],[134.57,48.02],[134.75,47.72],[134.17,47.3],[134.2,47.13],[133.87,46.5],[133.86,46.25],[133.51,45.88],[133.44,45.6],[133.19,45.49],[133.11,45.13],[132.94,45.03],[131.85,45.33],[131.45,44.98],[130.98,44.84],[131.26,44.07],[131.17,43.7],[131.26,43.38],[131.07,42.9],[130.42,42.73],[130.58,42.62],[130.53,42.54],[130.25,42.74],[130.24,42.89],[129.9,43.0],[129.7,42.45],[129.31,42.41],[128.92,42.04],[128.05,41.99],[128.29,41.61],[128.15,41.39],[127.18,41.53],[126.95,41.77],[126.72,41.72],[125.99,40.9],[124.89,40.46],[124.27,39.92],[123.65,39.88],[122.84,39.6],[121.98,39.05],[121.68,39.0],[121.65,38.87],[121.16,38.73],[121.11,38.92],[121.68,39.11],[121.63,39.22],[121.82,39.39],[121.28,39.38],[121.27,39.54],[121.52,39.64],[121.52,39.84],[121.8,39.95],[122.26,40.5],[121.83,40.97],[121.73,40.85],[121.17,40.9],[120.48,40.23],[119.39,39.75],[118.98,39.18],[118.3,39.07],[118.04,39.23],[117.78,39.13],[117.55,38.69],[117.66,38.42],[118.01,38.18],[118.94,38.04],[119.09,37.7],[118.95,37.33],[119.29,37.14],[119.76,37.16],[120.26,37.68],[120.75,37.83],[121.64,37.46],[122.06,37.53],[122.67,37.4],[122.45,37.07],[122.52,36.95],[122.34,36.83],[121.93,36.96],[121.05,36.61],[120.81,36.63],[120.9,36.44],[120.71,36.41],[120.64,36.13],[120.39,36.05],[120.33,36.23],[120.18,36.2],[120.09,36.12],[120.28,35.98],[119.43,35.3],[119.17,34.85],[120.27,34.27],[120.87,33.02],[120.85,32.66],[121.34,32.43],[121.45,32.15],[121.83,31.9],[121.87,31.7],[121.76,31.7],[120.97,31.87],[120.52,32.11],[120.04,31.94],[120.72,31.98],[120.79,31.82],[121.66,31.32],[121.83,31.06],[121.88,30.92],[121.42,30.79],[120.9,30.39],[120.45,30.39],[120.19,30.24],[120.49,30.3],[120.63,30.13],[121.26,30.3],[121.68,29.98],[122.08,29.87],[121.51,29.48],[121.89,29.63],[121.97,29.49],[121.92,29.14],[121.72,29.26],[121.45,29.13],[121.68,28.95],[121.54,28.93],[121.66,28.85],[121.48,28.64],[121.61,28.29],[121.27,28.22],[121.15,28.33],[120.96,28.04],[120.75,28.01],[120.83,27.89],[120.59,27.58],[120.61,27.41],[120.28,27.1],[120.04,26.63],[119.88,26.61],[119.82,26.85],[119.71,26.73],[119.59,26.78],[119.88,26.33],[119.46,26.05],[119.14,26.12],[119.33,25.95],[119.62,26.0],[119.54,25.59],[119.62,25.39],[119.18,25.45],[119.29,25.23],[118.98,25.21],[118.91,24.93],[118.64,24.84],[118.66,24.62],[118.09,24.63],[118.01,24.48],[117.84,24.47],[118.06,24.25],[117.63,23.84],[117.47,23.84],[117.37,23.59],[117.29,23.71],[117.08,23.58],[116.91,23.65],[116.86,23.45],[116.63,23.35],[116.7,23.28],[116.47,22.95],[115.64,22.85],[115.5,22.72],[115.2,22.82],[114.85,22.62],[114.65,22.76],[114.55,22.53],[114.02,22.51],[113.62,22.86],[113.62,23.13],[113.52,23.1],[113.33,22.91],[113.55,22.59],[113.55,22.23],[113.15,22.07],[113.09,22.21],[112.95,21.91],[112.81,21.94],[112.59,21.78],[112.36,21.98],[112.3,21.74],[111.94,21.85],[111.6,21.56],[111.02,21.51],[110.57,21.21],[110.41,21.34],[110.15,20.94],[110.37,20.84],[110.31,20.67],[110.51,20.52],[110.34,20.29],[109.88,20.36],[109.97,20.45],[109.66,20.92],[109.93,21.48],[109.69,21.52],[109.57,21.69],[109.54,21.54],[109.15,21.43],[109.1,21.59],[108.77,21.63],[108.48,21.9],[108.5,21.63],[108.32,21.69],[108.25,21.56],[107.97,21.51]]],[[[110.89,19.99],[111.01,19.66],[110.64,19.29],[110.45,18.75],[110.07,18.45],[109.52,18.22],[108.7,18.54],[108.67,19.3],[109.28,19.76],[109.18,19.77],[109.26,19.88],[110.17,20.05],[110.59,19.98],[110.65,20.14],[110.89,19.99]]]]}},{"type":"Feature","properties":{"name":"Hong Kong"},"geometry":{"type":"MultiPolygon","coordinates":[[[[114.02,22.51],[114.27,22.54],[114.34,22.4],[114.27,22.3],[113.94,22.36],[114.02,22.51]]],[[[114.0,22.21],[113.84,22.24],[114.04,22.33],[114.0,22.21]]]]}},{"type":"Feature","properties":{"name":"Cambodia"},"geometry":{"type":"MultiPolygon","coordinates":[[[[107.52,14.71],[107.33,14.13],[107.61,13.44],[107.48,13.03],[107.54,12.43],[107.39,12.26],[107.21,12.3],[106.93,12.08],[106.41,11.95],[106.4,11.69],[106.01,11.76],[105.85,11.64],[105.86,11.29],[106.16,11.04],[106.16,10.79],[105.76,10.99],[105.31,10.85],[105.05,10.91],[105.05,10.7],[104.85,10.53],[104.43,10.41],[103.87,10.66],[103.59,10.55],[103.54,10.67],[103.72,10.89],[103.53,11.15],[103.35,10.92],[103.15,10.91],[103.13,11.46],[102.74,12.09],[102.76,12.43],[102.5,12.67],[102.32,13.54],[102.55,13.59],[103.03,14.25],[103.55,14.42],[104.78,14.43],[105.03,14.23],[105.18,14.35],[105.35,14.11],[105.53,14.16],[106.07,13.92],[106.12,14.05],[105.98,14.34],[106.23,14.48],[106.5,14.58],[106.94,14.33],[107.52,14.71]]]]}},{"type":"Feature","properties":{"name":"Myanmar"},"geometry":{"type":"MultiPolygon","coordinates":[[[[100.12,20.32],[99.89,20.42],[99.46,20.36],[99.49,20.15],[99.07,20.1],[98.92,19.77],[98.02,19.75],[97.82,19.46],[97.75,18.59],[97.37,18.52],[97.63,18.29],[97.71,17.8],[98.44,16.98],[98.66,16.33],[98.89,16.35],[98.59,16.05],[98.56,15.37],[98.19,15.2],[98.2,14.98],[99.14,13.72],[99.12,13.03],[99.41,12.55],[99.61,11.78],[98.76,10.66],[98.7,10.19],[98.56,10.03],[98.46,10.68],[98.68,10.99],[98.74,11.59],[98.88,11.72],[98.64,11.74],[98.7,12.23],[98.6,12.25],[98.68,12.35],[98.58,13.16],[98.2,13.98],[98.11,13.71],[98.1,14.16],[97.91,14.65],[98.02,14.65],[97.81,14.86],[97.71,15.88],[97.58,16.02],[97.73,16.57],[97.38,16.52],[97.2,17.1],[96.85,17.4],[96.91,17.03],[96.77,16.71],[96.43,16.5],[96.19,16.77],[96.32,16.44],[95.76,16.17],[95.39,15.72],[95.3,15.76],[95.35,16.1],[95.18,15.83],[94.94,15.82],[94.89,16.18],[94.66,15.9],[94.7,16.51],[94.44,16.09],[94.22,16.02],[94.59,17.57],[94.25,18.74],[94.07,18.89],[94.04,19.29],[93.93,18.9],[93.49,19.37],[93.82,19.24],[94.0,19.44],[93.61,19.78],[93.71,19.91],[93.25,20.07],[93.13,19.86],[93.0,20.07],[93.07,20.38],[92.88,20.15],[92.79,20.21],[92.85,20.41],[92.71,20.56],[92.72,20.3],[92.38,20.72],[92.18,21.29],[92.33,21.44],[92.6,21.27],[92.57,21.98],[92.69,22.13],[92.96,22.0],[93.15,22.23],[93.08,22.72],[93.39,23.34],[93.33,24.06],[94.13,23.88],[94.71,25.05],[94.58,25.32],[95.13,26.04],[95.13,26.6],[96.19,27.26],[96.73,27.33],[97.1,27.12],[96.88,27.59],[97.34,27.94],[97.32,28.22],[97.6,28.52],[98.1,28.14],[98.3,27.55],[98.45,27.66],[98.65,27.57],[98.74,26.7],[98.69,26.19],[98.56,26.07],[98.66,25.86],[98.33,25.59],[98.14,25.57],[98.01,25.29],[97.82,25.25],[97.74,24.87],[97.58,24.77],[97.53,24.49],[97.71,24.23],[97.56,23.91],[98.21,24.11],[98.84,24.12],[98.68,23.91],[98.86,23.19],[99.51,22.96],[99.19,22.13],[99.92,22.03],[99.94,21.76],[100.21,21.46],[100.6,21.47],[101.13,21.74],[101.08,21.47],[100.76,21.31],[100.54,20.99],[100.62,20.86],[100.25,20.73],[100.12,20.32]]],[[[98.21,10.95],[98.27,10.74],[98.08,10.89],[98.21,10.95]]],[[[98.52,11.91],[98.47,12.08],[98.61,11.96],[98.52,11.91]]],[[[98.55,11.74],[98.53,11.54],[98.43,11.57],[98.38,11.79],[98.55,11.74]]],[[[98.41,12.6],[98.46,12.47],[98.31,12.34],[98.31,12.68],[98.41,12.6]]],[[[94.48,15.95],[94.41,15.85],[94.39,15.99],[94.6,16.21],[94.48,15.95]]],[[[97.58,16.25],[97.48,16.31],[97.54,16.51],[97.58,16.25]]],[[[93.69,18.68],[93.49,18.87],[93.74,18.87],[93.69,18.68]]],[[[93.71,19.56],[93.95,19.43],[93.9,19.33],[93.76,19.33],[93.64,19.5],[93.71,19.56]]],[[[98.07,12.39],[98.0,12.28],[97.94,12.35],[98.07,12.39]]]]}},{"type":"Feature","properties":{"name":"Brunei"},"geometry":{"type":"MultiPolygon","coordinates":[[[[115.14,4.9],[115.29,4.35],[115.11,4.39],[115.05,4.58],[115.03,4.9],[115.14,4.9]]],[[[115.03,4.9],[114.75,4.72],[114.84,4.39],[114.65,4.04],[114.06,4.59],[114.42,4.66],[115.0,5.02],[115.03,4.9]]]]}},{"type":"Feature","properties":{"name":"Bhutan"},"geometry":{"type":"MultiPolygon","coordinates":[[[[91.63,27.76],[91.59,27.56],[91.99,27.45],[92.08,27.29],[92.0,26.85],[90.74,26.77],[90.35,26.89],[89.76,26.7],[89.04,26.87],[88.74,27.18],[89.48,28.06],[89.98,28.31],[90.35,28.24],[90.35,28.08],[91.02,27.97],[91.27,28.08],[91.64,27.92],[91.63,27.76]]]]}},{"type":"Feature","properties":{"name":"Bangladesh"},"geometry":{"type":"MultiPolygon","coordinates":[[[[89.05,22.09],[88.85,23.04],[88.93,23.19],[88.72,23.25],[88.57,23.67],[88.72,24.27],[88.02,24.63],[88.46,25.19],[88.95,25.26],[88.08,25.89],[88.44,26.37],[88.42,26.57],[88.83,26.25],[88.97,26.25],[88.92,26.38],[89.02,26.41],[89.37,26.01],[89.55,26.01],[89.67,26.21],[89.82,25.94],[89.83,25.29],[90.44,25.16],[92.05,25.17],[92.49,24.9],[92.23,24.88],[92.1,24.41],[91.88,24.2],[91.37,24.09],[91.16,23.66],[91.32,23.1],[91.44,23.2],[91.62,22.98],[91.75,23.05],[91.93,23.69],[92.25,23.68],[92.49,22.69],[92.63,21.31],[92.33,21.44],[92.21,21.36],[92.32,20.79],[92.06,21.17],[91.86,22.35],[91.8,22.3],[91.48,22.88],[91.22,22.64],[90.95,22.6],[90.66,23.03],[90.6,23.59],[90.56,23.42],[90.27,23.46],[90.59,23.27],[90.44,22.75],[90.62,22.36],[90.23,21.83],[90.07,21.89],[90.21,22.16],[89.95,22.02],[89.92,22.12],[89.99,22.47],[89.81,21.98],[89.57,21.77],[89.48,22.28],[89.5,21.91],[89.35,21.72],[89.09,21.87],[89.05,22.09]]],[[[91.15,22.18],[91.04,22.11],[91.08,22.52],[91.15,22.18]]],[[[91.56,22.38],[91.41,22.48],[91.46,22.62],[91.56,22.38]]],[[[90.78,22.09],[90.52,22.07],[90.68,22.33],[90.5,22.84],[90.6,22.86],[90.87,22.48],[90.78,22.09]]]]}},{"type":"Feature","properties":{"name":"Australia"},"geometry":{"type":"MultiPolygon","coordinates":[[[[143.18,-11.95],[143.11,-12.3],[143.4,-12.64],[143.55,-13.74],[143.76,-14.35],[143.96,-14.46],[144.47,-14.23],[144.65,-14.49],[145.29,-14.94],[145.43,-16.41],[145.75,-16.88],[145.91,-16.91],[146.13,-17.64],[146.03,-18.27],[146.33,-18.55],[146.38,-18.98],[147.14,-19.39],[147.42,-19.38],[147.74,-19.77],[148.76,-20.29],[148.88,-20.48],[148.73,-20.47],[148.68,-20.58],[149.45,-21.58],[149.7,-22.44],[149.82,-22.39],[149.97,-22.55],[150.02,-22.17],[150.54,-22.56],[150.62,-22.37],[150.76,-22.58],[150.84,-23.46],[151.15,-23.78],[151.83,-24.12],[152.91,-25.43],[152.92,-25.69],[153.16,-25.96],[153.12,-27.19],[153.58,-28.24],[153.62,-28.67],[153.03,-30.56],[152.94,-31.43],[152.56,-32.05],[152.47,-32.44],[152.16,-32.76],[151.81,-32.9],[151.29,-33.58],[151.28,-33.93],[151.12,-34.01],[151.23,-34.03],[150.87,-34.5],[150.8,-35.01],[150.2,-35.83],[149.93,-37.53],[149.48,-37.77],[147.88,-37.93],[146.86,-38.66],[146.22,-38.73],[146.34,-38.89],[146.47,-38.84],[146.4,-39.15],[146.16,-38.87],[145.94,-38.9],[145.79,-38.67],[145.4,-38.54],[145.54,-38.39],[145.48,-38.24],[145.29,-38.24],[144.96,-38.5],[144.72,-38.34],[144.91,-38.34],[145.12,-38.09],[144.89,-37.9],[144.4,-38.14],[144.67,-38.21],[143.54,-38.82],[142.46,-38.39],[141.72,-38.27],[141.42,-38.36],[141.01,-38.08],[140.39,-37.9],[139.78,-37.25],[139.86,-36.66],[139.73,-36.37],[138.97,-35.58],[139.29,-35.61],[139.28,-35.38],[138.52,-35.64],[138.18,-35.61],[138.51,-35.02],[138.49,-34.76],[138.09,-34.17],[137.69,-35.14],[136.88,-35.24],[137.01,-34.92],[137.39,-34.91],[137.49,-34.16],[137.93,-33.58],[137.85,-33.2],[137.99,-33.09],[137.78,-32.58],[137.79,-32.82],[137.24,-33.63],[136.43,-34.03],[135.89,-34.66],[135.97,-34.98],[135.79,-34.86],[135.65,-34.94],[135.12,-34.59],[135.22,-34.49],[135.45,-34.58],[135.22,-33.96],[134.72,-33.26],[134.3,-33.17],[134.1,-32.75],[134.23,-32.73],[134.23,-32.55],[133.67,-32.21],[133.21,-32.18],[132.76,-31.96],[132.21,-32.01],[131.14,-31.5],[128.95,-31.7],[127.32,-32.26],[125.92,-32.3],[124.76,-32.88],[124.24,-33.02],[123.51,-33.92],[122.15,-33.99],[122.06,-33.87],[121.41,-33.83],[119.85,-33.97],[119.45,-34.37],[118.9,-34.48],[117.86,-35.05],[116.52,-34.99],[115.99,-34.8],[115.57,-34.43],[115.01,-34.26],[114.99,-33.52],[115.36,-33.64],[115.68,-33.19],[115.7,-31.69],[115.08,-30.56],[114.86,-29.14],[114.17,-28.08],[114.03,-27.35],[113.18,-26.18],[113.32,-26.24],[113.36,-26.08],[113.58,-26.56],[113.84,-26.5],[113.85,-26.33],[113.4,-25.71],[113.45,-25.6],[113.71,-25.83],[113.72,-26.13],[113.85,-26.01],[113.99,-26.32],[114.09,-26.39],[114.22,-26.29],[114.21,-25.85],[113.42,-24.44],[113.49,-23.87],[113.76,-23.42],[113.8,-22.91],[113.68,-22.64],[114.02,-21.88],[114.14,-21.91],[114.14,-22.48],[114.38,-22.34],[114.71,-21.82],[115.46,-21.49],[116.71,-20.65],[117.41,-20.72],[118.75,-20.26],[119.1,-20.0],[119.59,-20.04],[121.0,-19.6],[121.34,-19.32],[121.83,-18.48],[122.35,-18.11],[122.15,-17.55],[122.26,-17.14],[122.97,-16.44],[123.56,-17.52],[123.59,-17.03],[123.83,-17.12],[123.87,-16.92],[123.49,-16.49],[123.63,-16.42],[123.61,-16.22],[123.73,-16.19],[123.86,-16.38],[124.04,-16.26],[124.77,-16.4],[124.4,-16.3],[124.65,-15.87],[124.5,-15.97],[124.38,-15.76],[124.44,-15.49],[124.56,-15.5],[124.69,-15.27],[125.06,-15.44],[125.07,-15.31],[124.91,-15.31],[124.84,-15.16],[125.04,-15.0],[125.36,-15.12],[125.18,-14.71],[125.58,-14.48],[125.63,-14.26],[125.66,-14.53],[125.82,-14.47],[125.89,-14.62],[126.02,-14.49],[126.05,-13.98],[126.26,-14.16],[126.4,-14.02],[126.57,-14.16],[126.9,-13.74],[127.46,-14.03],[128.2,-14.75],[128.07,-15.33],[128.16,-15.23],[128.25,-15.3],[128.18,-15.04],[128.58,-14.77],[129.06,-14.88],[129.22,-15.16],[129.27,-14.87],[129.63,-15.14],[129.64,-14.85],[129.85,-14.83],[129.6,-14.65],[129.7,-14.56],[129.38,-14.39],[129.71,-13.98],[129.84,-13.57],[130.26,-13.3],[130.13,-13.15],[130.17,-12.96],[130.4,-12.69],[130.62,-12.65],[130.62,-12.43],[130.87,-12.56],[130.87,-12.37],[131.29,-12.07],[131.44,-12.28],[132.25,-12.19],[132.41,-12.3],[132.51,-12.13],[132.71,-12.12],[132.67,-11.65],[132.48,-11.49],[132.07,-11.47],[131.82,-11.3],[131.96,-11.18],[132.16,-11.31],[132.33,-11.22],[132.68,-11.51],[132.96,-11.41],[133.19,-11.71],[134.42,-12.05],[134.73,-11.98],[135.03,-12.19],[135.22,-12.22],[135.92,-11.83],[135.7,-12.21],[136.01,-12.19],[136.08,-12.42],[136.26,-12.43],[136.27,-12.13],[136.54,-11.96],[136.95,-12.35],[136.54,-12.78],[136.59,-13.0],[136.46,-13.23],[136.29,-13.14],[135.93,-13.3],[135.95,-13.93],[135.41,-14.76],[135.45,-14.92],[136.29,-15.57],[136.7,-15.69],[136.78,-15.89],[137.0,-15.88],[137.7,-16.23],[138.25,-16.72],[139.01,-16.9],[139.25,-17.33],[140.04,-17.7],[140.51,-17.62],[140.83,-17.41],[141.41,-16.07],[141.63,-15.06],[141.47,-13.8],[141.65,-13.26],[141.61,-12.94],[141.92,-12.8],[141.69,-12.35],[141.87,-11.98],[141.96,-12.05],[142.17,-10.95],[142.46,-10.71],[142.61,-10.75],[142.55,-10.87],[142.84,-11.31],[142.87,-11.82],[143.18,-11.95]]],[[[153.08,-25.75],[152.98,-25.55],[153.04,-25.19],[153.23,-25.01],[153.14,-24.81],[153.26,-24.73],[153.35,-25.06],[153.08,-25.75]]],[[[139.51,-16.57],[139.16,-16.74],[139.29,-16.47],[139.6,-16.4],[139.7,-16.51],[139.51,-16.57]]],[[[136.71,-13.8],[136.89,-13.79],[136.75,-14.07],[136.95,-14.18],[136.89,-14.29],[136.34,-14.21],[136.42,-13.86],[136.66,-13.68],[136.71,-13.8]]],[[[130.46,-11.68],[130.61,-11.82],[130.04,-11.79],[130.29,-11.34],[130.46,-11.68]]],[[[130.62,-11.38],[131.27,-11.19],[131.54,-11.44],[130.95,-11.93],[130.51,-11.62],[130.37,-11.21],[130.62,-11.38]]],[[[113.18,-26.05],[112.96,-25.78],[112.95,-25.53],[113.18,-26.05]]],[[[149.04,-20.29],[148.94,-20.28],[148.98,-20.15],[149.04,-20.29]]],[[[151.15,-23.49],[151.24,-23.78],[151.03,-23.53],[151.15,-23.49]]],[[[153.54,-27.44],[153.43,-27.71],[153.44,-27.41],[153.54,-27.44]]],[[[142.27,-10.7],[142.19,-10.76],[142.13,-10.64],[142.27,-10.7]]],[[[146.28,-18.23],[146.3,-18.48],[146.1,-18.25],[146.28,-18.23]]],[[[137.09,-15.78],[136.94,-15.71],[137.01,-15.59],[137.09,-15.78]]],[[[139.46,-17.11],[139.49,-16.99],[139.57,-17.09],[139.46,-17.11]]],[[[136.24,-13.82],[136.12,-13.82],[136.22,-13.66],[136.24,-13.82]]],[[[132.59,-11.3],[132.48,-11.04],[132.58,-10.97],[132.59,-11.3]]],[[[125.2,-14.58],[125.09,-14.59],[125.16,-14.46],[125.2,-14.58]]],[[[115.45,-20.79],[115.32,-20.85],[115.43,-20.67],[115.45,-20.79]]]]}},{"type":"Feature","properties":{"name":"Afghanistan"},"geometry":{"type":"MultiPolygon","coordinates":[[[[66.52,37.35],[67.7,37.23],[68.07,36.95],[68.91,37.33],[69.3,37.12],[69.49,37.55],[70.19,37.58],[70.21,37.92],[70.88,38.46],[71.26,38.31],[71.28,37.92],[71.58,37.91],[71.43,37.13],[71.67,36.7],[72.66,37.03],[72.9,37.27],[73.38,37.46],[73.72,37.42],[73.65,37.24],[74.35,37.42],[74.89,37.23],[74.73,37.29],[74.37,37.16],[74.54,37.02],[74.04,36.83],[73.12,36.87],[72.25,36.73],[71.23,36.12],[71.19,36.04],[71.57,35.55],[71.62,35.18],[70.97,34.53],[71.1,34.37],[71.05,34.05],[70.65,33.95],[69.89,34.01],[70.26,33.29],[69.5,33.02],[69.24,32.43],[69.28,31.94],[68.87,31.63],[68.6,31.8],[68.16,31.8],[67.58,31.51],[67.74,31.34],[67.45,31.23],[66.83,31.26],[66.35,30.8],[66.24,30.11],[66.31,29.97],[66.18,29.84],[65.1,29.56],[64.39,29.54],[64.1,29.39],[63.57,29.5],[62.48,29.41],[60.84,29.86],[61.81,30.91],[61.66,31.38],[60.82,31.5],[60.83,32.25],[60.56,33.06],[60.92,33.51],[60.51,33.64],[60.49,34.09],[60.64,34.31],[60.89,34.32],[60.73,34.52],[61.08,34.86],[61.26,35.62],[61.62,35.43],[61.98,35.44],[62.31,35.17],[62.69,35.26],[63.06,35.45],[63.13,35.85],[64.01,36.01],[64.51,36.34],[64.82,37.13],[65.55,37.25],[65.77,37.57],[66.52,37.35]]]]}},{"type":"Feature","properties":{"name":"Siachen Glacier"},"geometry":{"type":"MultiPolygon","coordinates":[[[[77.05,35.11],[76.77,35.66],[77.8,35.5],[77.05,35.11]]]]}}]}