{"type":"FeatureCollection","features":[{"type":"Feature","properties":{"name":"Indonesia"},"geometry":{"type":"MultiPolygon","coordinates":[[[[102.8391,0.291],[102.8545,0.3032],[102.8845,0.3153],[102.9139,0.3203],[102.9273,0.3109],[102.9077,0.2985],[102.8753,0.2841],[102.847,0.2781],[102.8391,0.291]]],[[[103.0796,0.6244],[103.0843,0.6085],[103.085,0.592],[103.0814,0.5793],[103.077,0.5748],[103.0715,0.5772],[103.0579,0.5964],[103.0366,0.6575],[103.0433,0.661],[103.0554,0.6587],[103.0658,0.6492],[103.0796,0.6244]]],[[[103.5064,0.7019],[103.5174,0.6984],[103.5218,0.6898],[103.5179,0.6676],[103.4979,0.627],[103.489,0.6199],[103.472,0.623],[103.4692,0.6374],[103.4739,0.6535],[103.4858,0.6674],[103.4995,0.6955],[103.5064,0.7019]]],[[[103.1128,0.793],[103.1209,0.78],[103.1162,0.7578],[103.1045,0.7354],[103.0923,0.7224],[103.0863,0.7247],[103.0808,0.7343],[103.0759,0.7528],[103.0772,0.7609],[103.0847,0.7757],[103.0946,0.786],[103.1066,0.793],[103.1128,0.793]]],[[[104.5646,0.7982],[104.6056,0.7939],[104.6216,0.7874],[104.6205,0.777],[104.6135,0.7659],[104.6019,0.7643],[104.572,0.7708],[104.554,0.7707],[104.5112,0.7503],[104.5119,0.7737],[104.5234,0.7884],[104.5423,0.7959],[104.5646,0.7982]]],[[[103.6677,0.8397],[103.7026,0.8142],[103.7181,0.7981],[103.7273,0.7799],[103.7249,0.7665],[103.7134,0.7624],[103.7009,0.7657],[103.6888,0.7917],[103.6665,0.8236],[103.6677,0.8397]]],[[[103.4622,0.9189],[103.4727,0.9088],[103.4795,0.8936],[103.4793,0.8789],[103.469,0.8696],[103.4447,0.8736],[103.433,0.8807],[103.4281,0.89],[103.4104,0.9047],[103.4071,0.9114],[103.4535,0.9206],[103.4622,0.9189]]],[[[100.9473,1.8254],[100.9419,1.8419],[100.9483,1.8828],[100.9241,1.9228],[100.9158,1.9447],[100.9058,1.9905],[100.8855,2.0363],[100.8235,2.116],[100.8032,2.1618],[100.8,2.2089],[100.8128,2.2498],[100.8412,2.2808],[100.8859,2.2983],[100.9079,2.2995],[101.0503,2.2915],[101.0586,2.2804],[101.0565,2.2412],[101.0674,2.2198],[101.1818,2.145],[101.3,2.0466],[101.3171,2.0246],[101.3259,2.0022],[101.3234,1.939],[101.3267,1.9164],[101.3513,1.8601],[101.3776,1.7733],[101.3973,1.7364],[101.427,1.7093],[101.4945,1.6787],[101.5296,1.6708],[101.5674,1.6559],[101.5916,1.6547],[101.6735,1.6695],[101.7117,1.6711],[101.7492,1.6615],[101.7786,1.6443],[102.0215,1.4379],[102.1182,1.3865],[102.1433,1.3577],[102.1533,1.3115],[102.147,1.2731],[102.1472,1.2478],[102.1567,1.2363],[102.1731,1.2309],[102.1873,1.2173],[102.1973,1.1996],[102.201,1.1817],[102.1931,1.1042],[102.1942,1.0659],[102.2085,1.0241],[102.2401,0.9821],[102.3211,0.9172],[102.4251,0.8043],[102.4639,0.7741],[102.5095,0.7503],[102.5322,0.7424],[102.5519,0.7381],[102.595,0.736],[102.6672,0.7503],[102.7813,0.7309],[102.8771,0.7264],[102.9181,0.7077],[102.9538,0.6758],[103.0563,0.5583],[103.0838,0.5156],[103.0923,0.4692],[103.0747,0.4423],[103.0373,0.4206],[102.9614,0.3872],[102.8991,0.3442],[102.8615,0.3358],[102.7463,0.2777],[102.7157,0.2576],[102.646,0.2426],[102.6277,0.2343],[102.612,0.2222],[102.5918,0.1863],[102.5819,0.1811],[102.5549,0.1864],[102.5366,0.1998],[102.5027,0.2364],[102.46,0.2475],[102.4373,0.2492],[102.4304,0.2463],[102.4396,0.2392],[102.4494,0.2365],[102.4807,0.2343],[102.5178,0.1926],[102.5457,0.1691],[102.5779,0.1585],[102.612,0.1737],[102.6331,0.2016],[102.6444,0.2095],[102.6955,0.2321],[102.7415,0.2266],[102.7634,0.2289],[102.8182,0.2537],[102.8859,0.2614],[102.9027,0.2678],[102.9729,0.3131],[103.0076,0.3247],[103.0576,0.373],[103.0759,0.383],[103.0989,0.3918],[103.1436,0.4002],[103.1663,0.4079],[103.1813,0.4264],[103.2015,0.4692],[103.2236,0.4884],[103.2801,0.4986],[103.3358,0.5317],[103.3622,0.5363],[103.3899,0.53],[103.4212,0.5163],[103.481,0.4823],[103.541,0.4346],[103.5877,0.3765],[103.6063,0.3109],[103.625,0.3398],[103.6343,0.3456],[103.6453,0.3453],[103.6902,0.326],[103.7112,0.3115],[103.7434,0.2773],[103.76,0.2395],[103.8005,0.0346],[103.814,0.0189],[103.8018,-0.0073],[103.7915,-0.0125],[103.7565,-0.0107],[103.6712,-0.0174],[103.6637,-0.0217],[103.6642,-0.0405],[103.6575,-0.0447],[103.6292,-0.0484],[103.6199,-0.0447],[103.6118,-0.0369],[103.6008,-0.0169],[103.5921,-0.0107],[103.577,-0.014],[103.5647,-0.0243],[103.5669,-0.0352],[103.5808,-0.0378],[103.5858,-0.0447],[103.5781,-0.074],[103.5872,-0.095],[103.5759,-0.1044],[103.5442,-0.1137],[103.508,-0.1144],[103.4944,-0.1184],[103.4831,-0.1594],[103.4668,-0.183],[103.443,-0.2021],[103.4146,-0.2167],[103.3014,-0.2376],[103.2705,-0.2576],[103.3325,-0.2638],[103.4248,-0.235],[103.4593,-0.2184],[103.4893,-0.2115],[103.5027,-0.2304],[103.4946,-0.2536],[103.4567,-0.289],[103.4368,-0.338],[103.4095,-0.3497],[103.3456,-0.36],[103.3456,-0.3669],[103.3794,-0.3803],[103.4006,-0.3845],[103.4295,-0.3749],[103.493,-0.3754],[103.5115,-0.3836],[103.5305,-0.3971],[103.5525,-0.4],[103.5905,-0.4246],[103.5984,-0.4368],[103.5921,-0.4563],[103.5733,-0.4754],[103.547,-0.4898],[103.5158,-0.4996],[103.418,-0.5178],[103.4016,-0.5095],[103.3901,-0.4904],[103.3729,-0.4494],[103.3804,-0.5143],[103.3848,-0.5229],[103.4065,-0.5408],[103.4146,-0.5519],[103.4163,-0.5754],[103.4085,-0.6049],[103.3936,-0.632],[103.3729,-0.6481],[103.3729,-0.6549],[103.3889,-0.6659],[103.3858,-0.6809],[103.3694,-0.6933],[103.3456,-0.6959],[103.3565,-0.7114],[103.376,-0.7268],[103.3999,-0.7389],[103.436,-0.7453],[103.4631,-0.7577],[103.4685,-0.7678],[103.4649,-0.783],[103.4475,-0.7994],[103.4412,-0.8126],[103.4854,-0.8049],[103.5073,-0.8049],[103.5271,-0.816],[103.5376,-0.8303],[103.5525,-0.8611],[103.5647,-0.8746],[103.5858,-0.8746],[103.6047,-0.9036],[103.6126,-0.9116],[103.6345,-0.9194],[103.6448,-0.9386],[103.6504,-0.943],[103.6887,-0.9492],[103.7029,-0.9601],[103.7251,-0.9856],[103.78,-0.9988],[103.7941,-1.0095],[103.8049,-1.0248],[103.8208,-1.0631],[103.8289,-1.0734],[103.8391,-1.0328],[103.8563,-1.0138],[103.8786,-0.9993],[103.9004,-0.9907],[103.9558,-0.977],[104.0223,-1.0082],[104.0408,-1.0217],[104.0569,-1.0275],[104.127,-1.0317],[104.1895,-1.0681],[104.2124,-1.0733],[104.2627,-1.0506],[104.3196,-1.0336],[104.3772,-1.0317],[104.4105,-1.1284],[104.3975,-1.1913],[104.4014,-1.2309],[104.415,-1.2719],[104.445,-1.3046],[104.4492,-1.316],[104.4561,-1.3791],[104.4544,-1.531],[104.4627,-1.5735],[104.4793,-1.6158],[104.5173,-1.6884],[104.5376,-1.7607],[104.5335,-1.7835],[104.489,-1.86],[104.4834,-1.8814],[104.4868,-1.9103],[104.4971,-1.936],[104.5135,-1.9186],[104.5274,-1.8674],[104.5374,-1.8541],[104.5645,-1.8577],[104.6057,-1.899],[104.6235,-1.9094],[104.637,-1.9216],[104.6296,-1.9492],[104.6143,-1.9782],[104.5874,-2.0128],[104.5889,-2.0195],[104.6062,-2.0185],[104.6206,-2.0104],[104.6546,-1.9701],[104.6598,-1.9902],[104.6638,-2.0313],[104.6858,-2.0447],[104.6919,-2.0458],[104.7,-2.0344],[104.7105,-2.0295],[104.7292,-2.0117],[104.7726,-1.9977],[104.8146,-2.0084],[104.8503,-2.0379],[104.8743,-2.08],[104.8828,-2.1257],[104.8761,-2.1647],[104.8597,-2.1994],[104.8283,-2.2467],[104.757,-2.3305],[104.7434,-2.3412],[104.6847,-2.3458],[104.6714,-2.3513],[104.6062,-2.4021],[104.676,-2.3718],[104.7096,-2.3709],[104.7292,-2.4089],[104.7302,-2.4527],[104.7268,-2.4781],[104.7131,-2.5115],[104.7131,-2.5578],[104.7092,-2.574],[104.6987,-2.5822],[104.6809,-2.591],[104.6328,-2.6052],[104.6028,-2.6266],[104.5695,-2.6564],[104.5487,-2.6848],[104.536,-2.7193],[104.5374,-2.759],[104.5354,-2.7573],[104.5311,-2.7726],[104.5472,-2.7595],[104.5628,-2.7384],[104.5744,-2.7145],[104.5851,-2.6777],[104.5999,-2.6638],[104.6336,-2.6423],[104.7028,-2.6095],[104.7315,-2.5908],[104.7503,-2.5603],[104.7686,-2.4947],[104.7708,-2.4738],[104.7682,-2.4301],[104.7718,-2.4142],[104.7844,-2.3953],[104.8164,-2.3649],[104.8322,-2.3453],[104.846,-2.3022],[104.8626,-2.2888],[104.8833,-2.2849],[104.9011,-2.2929],[104.9087,-2.3127],[104.9116,-2.3603],[104.929,-2.3748],[104.9309,-2.3512],[104.9414,-2.3362],[104.9583,-2.3285],[104.9802,-2.3264],[105.002,-2.332],[105.0291,-2.3585],[105.0451,-2.3674],[105.0867,-2.3613],[105.097,-2.3654],[105.1167,-2.3805],[105.1384,-2.3762],[105.2022,-2.3474],[105.2469,-2.3429],[105.2693,-2.3473],[105.3074,-2.3688],[105.3311,-2.3731],[105.3802,-2.3748],[105.4668,-2.3884],[105.535,-2.3948],[105.5521,-2.4021],[105.5521,-2.4089],[105.5384,-2.4089],[105.549,-2.4212],[105.5638,-2.415],[105.59,-2.3953],[105.6086,-2.3962],[105.6238,-2.4018],[105.6333,-2.4162],[105.6348,-2.443],[105.6292,-2.4646],[105.6112,-2.506],[105.6074,-2.5287],[105.6084,-2.5523],[105.6184,-2.5949],[105.6385,-2.6308],[105.6545,-2.6486],[105.6731,-2.663],[105.702,-2.6713],[105.7225,-2.6811],[105.7571,-2.6829],[105.7781,-2.6901],[105.7949,-2.7241],[105.7918,-2.8621],[105.8096,-2.899],[105.8402,-2.9301],[105.8792,-2.9511],[105.9226,-2.9577],[105.9518,-2.9509],[105.9751,-2.9528],[105.991,-2.9618],[106.0156,-2.9695],[106.0285,-2.9828],[106.0456,-3.0123],[106.054,-3.047],[106.0535,-3.1286],[106.0593,-3.17],[106.0798,-3.2115],[106.073,-3.2555],[106.0632,-3.2667],[105.9972,-3.3002],[105.9627,-3.3288],[105.929,-3.3654],[105.9002,-3.4072],[105.8811,-3.4511],[105.8196,-3.6725],[105.8257,-3.7115],[105.8511,-3.7433],[105.9334,-3.8023],[105.9525,-3.8338],[105.9529,-3.8691],[105.9358,-3.9098],[105.8701,-4.0042],[105.8606,-4.0367],[105.8552,-4.0709],[105.8313,-4.1402],[105.8128,-4.2387],[105.8142,-4.2731],[105.819,-4.3002],[105.8574,-4.3813],[105.8533,-4.4039],[105.8682,-4.412],[105.8792,-4.4249],[105.8948,-4.4584],[105.9016,-4.4518],[105.9063,-4.4693],[105.8987,-4.512],[105.9094,-4.5466],[105.888,-4.6018],[105.905,-4.6701],[105.8905,-4.6778],[105.8818,-4.6962],[105.8687,-4.7809],[105.8674,-4.8246],[105.8724,-4.8486],[105.9085,-4.9103],[105.9097,-4.9431],[105.8796,-5.0076],[105.8674,-5.0413],[105.8618,-5.1266],[105.8674,-5.2114],[105.8645,-5.2555],[105.8395,-5.3372],[105.8333,-5.3832],[105.8396,-5.4689],[105.8362,-5.4918],[105.8241,-5.5305],[105.8328,-5.5925],[105.8333,-5.6337],[105.8296,-5.6547],[105.8113,-5.6969],[105.8054,-5.7184],[105.7936,-5.7956],[105.7826,-5.8285],[105.7644,-5.8562],[105.7297,-5.8967],[105.7199,-5.8871],[105.7195,-5.8487],[105.7129,-5.8321],[105.681,-5.819],[105.6021,-5.8098],[105.5862,-5.7908],[105.5808,-5.7131],[105.5686,-5.6804],[105.5453,-5.6576],[105.5254,-5.6788],[105.515,-5.6778],[105.4836,-5.6589],[105.4497,-5.6235],[105.3982,-5.5813],[105.376,-5.5577],[105.3107,-5.466],[105.2796,-5.4443],[105.2505,-5.4591],[105.2463,-5.4788],[105.257,-5.5173],[105.2471,-5.5375],[105.2388,-5.5689],[105.2308,-5.5763],[105.2022,-5.5689],[105.18,-5.5805],[105.1802,-5.5969],[105.1898,-5.6173],[105.1958,-5.6403],[105.1958,-5.6679],[105.1992,-5.6789],[105.2163,-5.698],[105.1548,-5.7268],[105.1581,-5.7429],[105.2153,-5.759],[105.2022,-5.7737],[105.1836,-5.7822],[105.1633,-5.7861],[105.1306,-5.7874],[105.1184,-5.7822],[105.073,-5.7464],[104.9011,-5.6713],[104.8386,-5.6235],[104.7908,-5.6095],[104.7693,-5.592],[104.7097,-5.5258],[104.6984,-5.5156],[104.6813,-5.5069],[104.6228,-5.4907],[104.613,-5.4789],[104.6062,-5.4789],[104.613,-5.4993],[104.5676,-5.5012],[104.5514,-5.5085],[104.5342,-5.5239],[104.5285,-5.5405],[104.5332,-5.5598],[104.6887,-5.8079],[104.6978,-5.8454],[104.7024,-5.887],[104.7139,-5.9101],[104.7161,-5.9211],[104.7109,-5.9278],[104.6991,-5.9304],[104.5613,-5.9283],[104.5534,-5.9191],[104.5584,-5.8836],[104.5537,-5.86],[104.5418,-5.8419],[104.4888,-5.797],[104.4631,-5.7828],[104.4492,-5.7526],[104.384,-5.6925],[104.3677,-5.6857],[104.2977,-5.6433],[104.2908,-5.6254],[104.3145,-5.6051],[104.3015,-5.5856],[104.258,-5.5398],[104.2362,-5.5273],[104.2067,-5.5204],[104.1953,-5.5136],[104.1775,-5.4833],[104.1449,-5.4739],[104.1266,-5.4617],[104.1108,-5.4462],[104.0388,-5.3566],[103.9932,-5.3127],[103.9881,-5.2963],[103.9998,-5.277],[104.0025,-5.2629],[103.9914,-5.2464],[103.9626,-5.225],[103.9188,-5.2231],[103.9014,-5.2185],[103.8943,-5.2014],[103.8973,-5.1917],[103.911,-5.1723],[103.9141,-5.1601],[103.9134,-5.1393],[103.9085,-5.1232],[103.8911,-5.1042],[103.8323,-5.068],[103.8076,-5.0419],[103.7922,-5.0309],[103.7738,-5.0265],[103.7482,-5.0265],[103.7261,-5.0168],[103.7258,-5.007],[103.7355,-4.978],[103.7329,-4.9718],[103.7054,-4.955],[103.6921,-4.9519],[103.6817,-4.9547],[103.6541,-4.9792],[103.6306,-4.935],[103.617,-4.9199],[103.5921,-4.9103],[103.5536,-4.9089],[103.5442,-4.8972],[103.5,-4.8639],[103.4748,-4.8561],[103.4617,-4.8557],[103.4248,-4.8709],[103.4146,-4.8693],[103.3934,-4.8141],[103.386,-4.8049],[103.3592,-4.7874],[103.3445,-4.8005],[103.3289,-4.7941],[103.3166,-4.7765],[103.3036,-4.7341],[103.1729,-4.6179],[103.05,-4.5431],[102.9204,-4.4926],[102.9043,-4.4778],[102.8899,-4.4404],[102.8763,-4.4206],[102.7012,-4.2704],[102.5275,-4.1511],[102.3662,-4.0265],[102.3125,-3.9915],[102.2918,-3.9654],[102.2835,-3.9309],[102.2879,-3.9153],[102.3067,-3.8847],[102.3109,-3.8654],[102.3045,-3.8451],[102.2741,-3.8105],[102.2632,-3.7931],[102.2611,-3.7819],[102.2632,-3.7584],[102.2451,-3.728],[102.2405,-3.6785],[102.2344,-3.6594],[102.2222,-3.6428],[102.0657,-3.5505],[101.877,-3.4213],[101.6375,-3.2507],[101.6113,-3.2245],[101.5845,-3.1769],[101.565,-3.1623],[101.419,-2.9273],[101.408,-2.8855],[101.327,-2.7392],[101.2993,-2.7076],[101.2625,-2.6833],[101.1784,-2.6413],[101.1398,-2.6169],[101.1048,-2.5871],[100.9231,-2.3334],[100.834,-2.1591],[100.8316,-2.1413],[100.8457,-2.1194],[100.8783,-2.08],[100.8872,-2.0372],[100.8646,-1.9124],[100.8576,-1.8919],[100.8411,-1.8704],[100.7761,-1.8058],[100.7647,-1.7721],[100.7184,-1.6982],[100.6683,-1.6397],[100.6545,-1.6176],[100.6455,-1.594],[100.6366,-1.5514],[100.6326,-1.508],[100.5846,-1.4604],[100.5706,-1.4426],[100.5799,-1.4319],[100.5842,-1.4158],[100.5706,-1.4084],[100.5774,-1.3981],[100.5819,-1.3937],[100.5842,-1.3947],[100.5692,-1.3308],[100.5599,-1.3196],[100.5398,-1.3142],[100.4987,-1.2903],[100.4792,-1.283],[100.4583,-1.2638],[100.4505,-1.2719],[100.4258,-1.2761],[100.4155,-1.2745],[100.406,-1.2644],[100.4265,-1.2439],[100.4318,-1.2346],[100.4333,-1.2067],[100.4274,-1.1926],[100.3849,-1.1552],[100.3701,-1.1609],[100.3661,-1.1505],[100.3713,-1.121],[100.3831,-1.1114],[100.3849,-1.1039],[100.3713,-1.0733],[100.3919,-1.0671],[100.4129,-1.0733],[100.4177,-1.0562],[100.4164,-1.0478],[100.4129,-1.0392],[100.391,-1.0416],[100.3799,-1.0305],[100.353,-0.9771],[100.344,-0.9088],[100.3279,-0.8588],[100.3014,-0.8163],[100.1597,-0.6679],[100.134,-0.6347],[100.0906,-0.5572],[100.0349,-0.488],[100.0013,-0.4563],[99.9304,-0.4094],[99.9194,-0.398],[99.9103,-0.3752],[99.8888,-0.3576],[99.8436,-0.3321],[99.824,-0.3134],[99.8138,-0.2946],[99.8059,-0.2278],[99.7754,-0.1956],[99.7595,-0.1684],[99.7549,-0.1373],[99.7668,-0.0754],[99.7617,-0.0522],[99.7472,-0.0298],[99.6895,0.0201],[99.6328,0.081],[99.6108,0.0986],[99.534,0.1403],[99.4905,0.1554],[99.4082,0.1639],[99.3926,0.1717],[99.3782,0.188],[99.3566,0.2257],[99.3411,0.2388],[99.3162,0.2426],[99.2966,0.2377],[99.2606,0.2199],[99.2442,0.216],[99.2334,0.217],[99.2113,0.2257],[99.1888,0.2456],[99.1687,0.2426],[99.138,0.2631],[99.1393,0.2737],[99.1531,0.2872],[99.1585,0.2978],[99.1585,0.32],[99.1484,0.3332],[99.1106,0.3456],[99.1288,0.3918],[99.1323,0.4121],[99.1272,0.4844],[99.1226,0.509],[99.1106,0.5238],[99.0984,0.5142],[99.0973,0.5307],[99.1039,0.5784],[99.1003,0.6018],[99.0899,0.622],[99.0728,0.6308],[99.0486,0.6199],[99.04,0.6505],[99.0474,0.7397],[99.0418,0.777],[99.0061,0.8188],[98.9812,0.8317],[98.9767,0.8474],[98.9803,0.8862],[98.9758,0.9208],[98.9173,1.1172],[98.839,1.3013],[98.8369,1.3115],[98.8446,1.3459],[98.84,1.3568],[98.7991,1.3987],[98.7886,1.4138],[98.7754,1.4516],[98.7681,1.4936],[98.7565,1.5045],[98.7302,1.5144],[98.7202,1.5454],[98.7096,1.5641],[98.7113,1.5696],[98.7271,1.5722],[98.7337,1.5699],[98.7454,1.5561],[98.7534,1.5356],[98.7664,1.549],[98.7982,1.5991],[98.8189,1.6197],[98.8226,1.6304],[98.8236,1.6667],[98.8191,1.6823],[98.8059,1.6889],[98.7881,1.6914],[98.7837,1.699],[98.783,1.7297],[98.7739,1.7486],[98.7601,1.7641],[98.7271,1.7919],[98.715,1.785],[98.7111,1.7791],[98.7127,1.7639],[98.7271,1.7565],[98.7202,1.7335],[98.7111,1.7258],[98.6907,1.7363],[98.6582,1.7639],[98.5762,1.8881],[98.5352,1.9365],[98.444,1.9912],[98.407,2.0019],[98.3545,2.0038],[98.3496,2.0072],[98.3472,2.029],[98.3298,2.0383],[98.2692,2.0381],[98.2609,2.0485],[98.2561,2.0733],[98.2437,2.0876],[98.2095,2.1099],[98.1526,2.1569],[98.0896,2.1959],[97.9836,2.2444],[97.9559,2.2717],[97.9334,2.2698],[97.8669,2.2475],[97.8508,2.2512],[97.8294,2.2642],[97.8177,2.2589],[97.7948,2.2778],[97.7573,2.2717],[97.7444,2.2811],[97.7061,2.3461],[97.6636,2.3921],[97.6582,2.4116],[97.6611,2.5273],[97.6441,2.6689],[97.6089,2.8486],[97.6027,2.8662],[97.5928,2.8737],[97.5353,2.8883],[97.4846,2.913],[97.4221,2.9284],[97.405,2.9433],[97.332,3.0314],[97.3135,3.0617],[97.3008,3.0934],[97.2852,3.1785],[97.2708,3.2144],[97.2405,3.238],[97.1826,3.246],[97.1716,3.2548],[97.0186,3.5227],[96.9998,3.5459],[96.9217,3.6057],[96.9035,3.6347],[96.8836,3.6824],[96.8421,3.7067],[96.8381,3.7126],[96.8079,3.7241],[96.778,3.743],[96.7605,3.7487],[96.5598,3.7466],[96.5199,3.7548],[96.4795,3.7787],[96.4303,3.8253],[96.2793,4.0258],[96.2114,4.0939],[96.1978,4.1213],[96.1597,4.1413],[96.1353,4.1417],[96.1252,4.1364],[96.0652,4.205],[96.0497,4.2143],[96.0308,4.2175],[96.01,4.2257],[95.9035,4.3447],[95.8141,4.4328],[95.8071,4.4461],[95.759,4.4844],[95.7258,4.5317],[95.6565,4.58],[95.6165,4.6284],[95.599,4.6352],[95.5762,4.6347],[95.5654,4.6375],[95.5609,4.6457],[95.5729,4.6607],[95.5752,4.6666],[95.5725,4.6738],[95.554,4.6762],[95.5269,4.6973],[95.4891,4.7624],[95.4684,4.7895],[95.4413,4.8106],[95.4263,4.8273],[95.4185,4.8625],[95.4058,4.8877],[95.4002,4.9105],[95.386,4.9351],[95.3799,4.9604],[95.3489,5.0375],[95.3128,5.0871],[95.2969,5.1164],[95.2798,5.1225],[95.2992,5.1503],[95.3016,5.1724],[95.2913,5.1916],[95.2487,5.231],[95.2395,5.2708],[95.2319,5.2823],[95.199,5.2929],[95.2053,5.3076],[95.2222,5.3264],[95.2319,5.3446],[95.2339,5.3593],[95.2517,5.3956],[95.2536,5.4116],[95.2497,5.425],[95.2319,5.4508],[95.2455,5.4605],[95.2239,5.4896],[95.2251,5.5054],[95.1973,5.5464],[95.2127,5.5731],[95.2239,5.5803],[95.2388,5.5744],[95.2505,5.579],[95.2798,5.5744],[95.3353,5.6121],[95.3692,5.6213],[95.4129,5.6496],[95.4319,5.6547],[95.4497,5.6496],[95.4771,5.6236],[95.5027,5.6051],[95.5112,5.603],[95.5337,5.6221],[95.5762,5.6313],[95.6116,5.6267],[95.7622,5.5769],[95.8396,5.5286],[95.8555,5.5222],[95.8726,5.5197],[95.8875,5.5122],[95.9036,5.4508],[95.9304,5.4145],[96.0549,5.3136],[96.0881,5.2955],[96.1262,5.2818],[96.2905,5.259],[96.3622,5.2255],[96.4066,5.2172],[96.4295,5.2183],[96.4663,5.2355],[96.5274,5.2112],[96.5676,5.2084],[96.6506,5.2163],[96.6849,5.2255],[96.7851,5.2599],[96.8284,5.2802],[96.8944,5.2621],[96.9072,5.2627],[96.9229,5.2695],[96.9734,5.2734],[97.0302,5.2513],[97.0743,5.2382],[97.1096,5.2141],[97.1493,5.1988],[97.176,5.1613],[97.2266,5.1462],[97.2684,5.1551],[97.4968,5.2519],[97.5262,5.2423],[97.6644,5.0734],[97.8301,4.9388],[97.8739,4.9188],[97.8938,4.9058],[97.9092,4.8896],[97.9561,4.808],[97.9632,4.7895],[97.9754,4.7062],[97.9837,4.6784],[98.007,4.6339],[98.0071,4.5977],[97.9925,4.5538],[97.9968,4.5465],[98.0262,4.5532],[98.0388,4.5519],[98.048,4.539],[98.054,4.5532],[98.0613,4.5548],[98.0759,4.5465],[98.0829,4.5361],[98.0896,4.5328],[98.1135,4.539],[98.1382,4.5344],[98.1597,4.5223],[98.1761,4.5048],[98.1858,4.4844],[98.1921,4.4844],[98.2057,4.498],[98.2406,4.4567],[98.2756,4.4254],[98.2825,4.3649],[98.2678,4.2926],[98.2664,4.2116],[98.2634,4.2029],[98.2405,4.1902],[98.1858,4.1697],[98.18,4.1582],[98.1781,4.1418],[98.179,4.1082],[98.2171,4.1441],[98.2371,4.1492],[98.263,4.1773],[98.2995,4.089],[98.3057,4.0803],[98.363,4.0876],[98.3845,4.0865],[98.4058,4.0789],[98.4417,4.0575],[98.4627,4.053],[98.4772,4.0462],[98.4976,4.0146],[98.508,4.0046],[98.5442,4.0052],[98.5578,4.0008],[98.5679,3.9665],[98.5796,3.9538],[98.5949,3.9437],[98.6766,3.9145],[98.7003,3.8753],[98.6997,3.8339],[98.7106,3.8038],[98.7966,3.7254],[98.8966,3.6814],[98.9575,3.6713],[99.0093,3.6354],[99.0524,3.6217],[99.0739,3.609],[99.1013,3.5826],[99.1798,3.5463],[99.27,3.4846],[99.3682,3.4079],[99.384,3.3989],[99.4209,3.3915],[99.4333,3.3829],[99.4539,3.361],[99.4898,3.3362],[99.4976,3.3095],[99.506,3.296],[99.5277,3.2716],[99.5581,3.2446],[99.5894,3.228],[99.6853,3.2047],[99.7195,3.1916],[99.7376,3.189],[99.7507,3.1805],[99.7816,3.1208],[99.834,3.0724],[99.8529,3.0473],[99.8579,3.0115],[99.89,3.0183],[99.9113,3.0001],[99.9305,2.9754],[99.9573,2.9631],[99.9795,2.9485],[99.9902,2.9145],[99.9979,2.7991],[99.9959,2.7856],[99.9707,2.7454],[99.9646,2.7194],[99.9544,2.7038],[99.9535,2.6962],[99.9592,2.6879],[99.9841,2.6788],[99.9927,2.6688],[99.9876,2.6609],[99.9876,2.6546],[100.0088,2.6204],[100.0059,2.6092],[100.008,2.6026],[100.0139,2.6016],[100.0225,2.6074],[100.0282,2.6176],[100.0156,2.6381],[100.0122,2.6788],[99.974,2.7031],[99.9857,2.7185],[100.0186,2.7317],[100.0549,2.7273],[100.077,2.6894],[100.077,2.6347],[100.096,2.5705],[100.1097,2.5456],[100.1258,2.5301],[100.1385,2.5379],[100.1375,2.5519],[100.1174,2.6037],[100.1174,2.6452],[100.1211,2.6636],[100.1311,2.6819],[100.1438,2.6951],[100.1594,2.7038],[100.2034,2.7099],[100.2106,2.7062],[100.2175,2.6788],[100.2484,2.6621],[100.2546,2.6273],[100.2688,2.5969],[100.2737,2.5902],[100.2996,2.5721],[100.3084,2.5695],[100.3122,2.5629],[100.3817,2.355],[100.4053,2.3127],[100.4343,2.2733],[100.5073,2.1992],[100.561,2.1568],[100.6178,2.1291],[100.6662,2.1345],[100.7891,2.0485],[100.8128,2.0397],[100.8323,2.0163],[100.8557,1.9992],[100.8724,1.972],[100.8862,1.941],[100.8955,1.8862],[100.9059,1.8569],[100.9231,1.8349],[100.9473,1.8254]]],[[[103.2936,0.6254],[103.3,0.5754],[103.2957,0.5494],[103.2808,0.538],[103.1707,0.5137],[103.1532,0.5238],[103.1405,0.5394],[103.136,0.5562],[103.1367,0.5739],[103.1589,0.6648],[103.1792,0.6955],[103.2118,0.7082],[103.2302,0.7042],[103.2469,0.694],[103.2732,0.6657],[103.2936,0.6254]]],[[[103.5187,0.8184],[103.5244,0.7985],[103.5234,0.7778],[103.4905,0.8213],[103.4759,0.8322],[103.4403,0.8442],[103.4258,0.8544],[103.4212,0.8732],[103.4885,0.8454],[103.5055,0.834],[103.5187,0.8184]]],[[[103.8186,0.8862],[103.8633,0.8769],[103.8982,0.8533],[103.9242,0.8225],[103.9421,0.7913],[103.9414,0.7757],[103.9329,0.7703],[103.9214,0.7728],[103.9114,0.7807],[103.895,0.8102],[103.8875,0.818],[103.8517,0.8354],[103.8186,0.8801],[103.8186,0.8862]]],[[[103.489,0.777],[103.5068,0.7554],[103.51,0.7429],[103.4803,0.6852],[103.4595,0.6581],[103.4343,0.6473],[103.4157,0.6574],[103.3937,0.6988],[103.3838,0.7082],[103.3456,0.7634],[103.3387,0.8049],[103.3504,0.8392],[103.3574,0.8725],[103.3699,0.8861],[103.3855,0.8889],[103.4009,0.8801],[103.4276,0.8316],[103.4597,0.8204],[103.489,0.777]]],[[[103.8018,0.8527],[103.8171,0.8417],[103.8311,0.8164],[103.8395,0.7884],[103.8377,0.7695],[103.8323,0.7654],[103.8267,0.7657],[103.8013,0.7842],[103.7639,0.8049],[103.7463,0.8227],[103.7305,0.8476],[103.7262,0.8732],[103.7434,0.8937],[103.7776,0.8801],[103.8018,0.8527]]],[[[103.9421,0.9961],[103.9614,0.9748],[103.9673,0.9601],[103.9666,0.9472],[103.9588,0.9398],[103.9463,0.9356],[103.9216,0.9346],[103.8566,0.9684],[103.8464,0.9775],[103.8397,0.9899],[103.8389,1.003],[103.8447,1.0127],[103.8566,1.0144],[103.8738,1.0036],[103.8801,1.0315],[103.8928,1.0144],[103.909,1.0059],[103.9421,0.9961]]],[[[104.7986,1.0315],[104.811,1.0256],[104.8301,1.0234],[104.8435,1.0182],[104.839,1.0036],[104.8499,0.9912],[104.8528,0.9755],[104.8454,0.9633],[104.8328,0.9551],[104.8283,0.965],[104.8259,0.993],[104.7912,1.0241],[104.7986,1.0315]]],[[[103.4431,1.0128],[103.4448,1.0003],[103.4422,0.9953],[103.437,0.9914],[103.4236,0.9902],[103.4076,0.9949],[103.3804,1.0098],[103.3577,1.0045],[103.3408,1.0195],[103.3148,1.0616],[103.3156,1.0732],[103.3338,1.1114],[103.3421,1.1197],[103.3665,1.1312],[103.3767,1.1333],[103.3898,1.1303],[103.3914,1.1225],[103.3872,1.0998],[103.3978,1.0642],[103.4097,1.0512],[103.4284,1.0472],[103.4314,1.0427],[103.4319,1.0284],[103.4431,1.0128]]],[[[103.0487,0.797],[103.0545,0.7777],[103.0576,0.777],[103.0491,0.7578],[103.0437,0.7207],[103.0337,0.705],[103.0073,0.6938],[102.9824,0.7224],[102.9299,0.77],[102.8947,0.79],[102.8522,0.7982],[102.7669,0.7913],[102.7022,0.8039],[102.6815,0.8049],[102.5977,0.7851],[102.5579,0.7803],[102.5164,0.7913],[102.458,0.8322],[102.4065,0.8732],[102.4094,0.8947],[102.4246,0.9145],[102.4451,0.929],[102.4894,0.9398],[102.5007,0.9533],[102.5017,0.9729],[102.4699,1.0674],[102.4676,1.1064],[102.489,1.1333],[102.5275,1.1398],[102.5564,1.1257],[102.6157,1.0577],[102.6174,1.0443],[102.6089,1.0278],[102.6055,1.0112],[102.6218,1.0016],[102.6637,0.9961],[102.6781,0.9994],[102.7053,1.0139],[102.7188,1.0173],[102.7638,1.0112],[102.7826,1.0018],[102.8325,0.9638],[102.909,0.9277],[103.0217,0.8453],[103.0404,0.8213],[103.0487,0.797]]],[[[103.1265,0.9279],[103.1633,0.8996],[103.1746,0.8821],[103.1675,0.859],[103.1271,0.8344],[103.0863,0.841],[102.9515,0.9246],[102.9512,0.9279],[102.9067,0.9688],[102.8589,0.9877],[102.8244,0.9954],[102.7907,1.0315],[102.7736,1.0355],[102.7119,1.0315],[102.6476,1.0063],[102.6262,1.0098],[102.6248,1.022],[102.6372,1.041],[102.6706,1.0756],[102.6852,1.0954],[102.7019,1.1378],[102.7156,1.1544],[102.7554,1.1679],[102.8018,1.1633],[102.8862,1.1333],[102.9671,1.0915],[103.0371,1.0446],[103.0776,1.0034],[103.1265,0.9279]]],[[[104.1463,1.1605],[104.1524,1.14],[104.1517,1.1195],[104.1311,1.0488],[104.1232,1.0496],[104.106,1.065],[104.1042,1.0517],[104.1128,1.0377],[104.1045,1.0333],[104.0923,1.0098],[104.0923,0.9899],[104.0718,0.9899],[104.0492,0.9842],[104.0317,0.9894],[103.9961,1.0098],[103.9558,1.0098],[103.9182,1.0513],[103.9067,1.0717],[103.9026,1.0905],[103.9141,1.0998],[103.9238,1.0961],[103.9382,1.0796],[103.949,1.0786],[103.9562,1.0849],[103.9432,1.1309],[103.9445,1.1352],[103.9558,1.1408],[103.9671,1.1417],[103.9961,1.1333],[104.0111,1.1447],[104.0192,1.1789],[104.0309,1.1879],[104.0414,1.1814],[104.0708,1.1459],[104.0855,1.1333],[104.0916,1.1455],[104.0916,1.1584],[104.0786,1.1817],[104.0906,1.1878],[104.1157,1.1872],[104.1277,1.1813],[104.1463,1.1605]]],[[[104.6546,1.0964],[104.6675,1.0306],[104.6516,1.009],[104.6471,0.9969],[104.654,0.9769],[104.6548,0.9477],[104.6616,0.9372],[104.6587,0.9279],[104.6499,0.9184],[104.6235,0.9122],[104.6164,0.9062],[104.5999,0.835],[104.5671,0.8295],[104.4834,0.859],[104.4893,0.8751],[104.4837,0.8933],[104.4695,0.9081],[104.4492,0.9142],[104.4492,0.9216],[104.4846,0.9222],[104.4902,0.9279],[104.4866,0.9371],[104.4492,0.9415],[104.429,0.9489],[104.4211,0.9566],[104.4212,0.9688],[104.4276,0.9748],[104.4627,0.9831],[104.4574,1.0019],[104.4627,1.0173],[104.4797,1.0253],[104.4852,1.0337],[104.4678,1.0409],[104.4525,1.0582],[104.4387,1.0569],[104.3862,1.0299],[104.3406,1.0209],[104.3272,1.0068],[104.3154,1.0036],[104.271,1.0036],[104.2456,1.0173],[104.2414,1.0355],[104.2424,1.0559],[104.2328,1.0756],[104.2319,1.0933],[104.2564,1.1089],[104.3166,1.1329],[104.3325,1.1544],[104.3413,1.1796],[104.3563,1.1817],[104.3784,1.1765],[104.3893,1.1787],[104.3997,1.2026],[104.4126,1.2006],[104.4356,1.1879],[104.4761,1.1783],[104.5081,1.1795],[104.5381,1.1903],[104.572,1.2091],[104.568,1.2202],[104.5757,1.2254],[104.5869,1.2199],[104.5925,1.1988],[104.5869,1.1621],[104.5882,1.1446],[104.5994,1.1265],[104.6471,1.105],[104.6546,1.0964]]],[[[102.4734,1.242],[102.4795,1.2191],[102.4761,1.1945],[102.4474,1.1005],[102.4456,1.0762],[102.4474,1.0513],[102.4652,0.9948],[102.468,0.9726],[102.4649,0.9634],[102.447,0.963],[102.4375,0.9589],[102.3997,0.9279],[102.3693,0.9352],[102.3338,0.9637],[102.2671,1.0369],[102.2513,1.0668],[102.2393,1.0821],[102.2329,1.0995],[102.2451,1.2039],[102.2419,1.2219],[102.2229,1.238],[102.2126,1.258],[102.201,1.2978],[102.2146,1.3356],[102.2085,1.3772],[102.2106,1.3983],[102.2175,1.4092],[102.2312,1.4132],[102.2529,1.4138],[102.2909,1.4045],[102.3221,1.3815],[102.3757,1.3223],[102.4514,1.2673],[102.4734,1.242]]],[[[102.4959,1.3636],[102.5115,1.2953],[102.5095,1.2773],[102.4788,1.2707],[102.4347,1.2991],[102.3723,1.3598],[102.3303,1.4133],[102.2852,1.4333],[102.1345,1.4557],[102.0956,1.4752],[102.057,1.5107],[102.0265,1.5477],[102.0044,1.5857],[102.0078,1.6154],[102.0537,1.6273],[102.0724,1.6232],[102.1201,1.6007],[102.1524,1.5811],[102.1751,1.5758],[102.2376,1.5703],[102.2979,1.5585],[102.3381,1.5585],[102.3792,1.538],[102.4627,1.5154],[102.4905,1.4897],[102.4959,1.4418],[102.4959,1.3636]]],[[[104.6887,0.0713],[104.7079,0.0436],[104.7029,0.0328],[104.6839,0.0363],[104.6609,0.0514],[104.6399,0.0701],[104.6336,0.0781],[104.6261,0.1022],[104.6198,0.1058],[104.6062,0.0918],[104.5952,0.1016],[104.5684,0.1368],[104.5615,0.1613],[104.5467,0.1625],[104.5342,0.1706],[104.5249,0.1955],[104.4985,0.2233],[104.4902,0.2426],[104.512,0.2329],[104.5311,0.216],[104.5324,0.2229],[104.5388,0.2283],[104.5481,0.2243],[104.6887,0.0713]]],[[[104.4055,0.3388],[104.4162,0.3288],[104.4214,0.3179],[104.4202,0.3063],[104.4114,0.2944],[104.4051,0.2921],[104.3955,0.3009],[104.3919,0.3166],[104.3735,0.3245],[104.3469,0.3599],[104.3394,0.3655],[104.3518,0.3712],[104.3582,0.3689],[104.3762,0.3543],[104.4055,0.3388]]],[[[104.2158,0.7082],[104.2415,0.6954],[104.2705,0.675],[104.2876,0.6508],[104.2774,0.6262],[104.2664,0.633],[104.2498,0.6672],[104.222,0.696],[104.2158,0.7082]]],[[[104.284,0.7082],[104.2648,0.7022],[104.2554,0.7049],[104.2361,0.7185],[104.2145,0.7212],[104.2056,0.7261],[104.1917,0.746],[104.1882,0.7645],[104.1958,0.78],[104.2158,0.7913],[104.2449,0.7865],[104.2542,0.7978],[104.273,0.7965],[104.2774,0.7879],[104.2798,0.7471],[104.2977,0.7082],[104.284,0.7082]]],[[[104.2261,0.8801],[104.2415,0.877],[104.2578,0.8686],[104.2663,0.8559],[104.2575,0.8397],[104.2395,0.8225],[104.1875,0.7993],[104.1764,0.7985],[104.1675,0.8049],[104.1611,0.8188],[104.156,0.8464],[104.1476,0.859],[104.1341,0.8673],[104.1072,0.873],[104.0923,0.8801],[104.0994,0.8948],[104.094,0.9331],[104.0991,0.9489],[104.1126,0.9526],[104.1277,0.9425],[104.1575,0.9108],[104.1721,0.8835],[104.1848,0.8801],[104.2261,0.8801]]],[[[104.7249,0.7497],[104.741,0.7489],[104.7542,0.7372],[104.749,0.7226],[104.7393,0.7163],[104.7207,0.7379],[104.7249,0.7497]]],[[[104.6594,0.8459],[104.6633,0.8291],[104.6614,0.8201],[104.6515,0.81],[104.6304,0.8065],[104.6255,0.8107],[104.6354,0.8286],[104.6392,0.848],[104.6486,0.8579],[104.6594,0.8459]]]]}},{"type":"Feature","properties":{"name":"Malaysia"},"geometry":{"type":"MultiPolygon","coordinates":[[[[102.0731,6.2575],[102.1636,6.1975],[102.187,6.2034],[102.1917,6.2151],[102.1831,6.223],[102.1668,6.218],[102.1781,6.2336],[102.1996,6.2328],[102.3157,6.1904],[102.3381,6.177],[102.3799,6.133],[102.4998,5.8974],[102.5208,5.8717],[102.5505,5.848],[102.6033,5.8154],[102.6263,5.7972],[102.646,5.7729],[102.659,5.7405],[102.6692,5.725],[102.6965,5.7129],[102.8757,5.5714],[102.9181,5.5504],[102.9595,5.5421],[102.9756,5.5313],[103.0276,5.4855],[103.1203,5.3813],[103.2224,5.2211],[103.2573,5.1362],[103.3566,4.9704],[103.4153,4.8633],[103.4251,4.8371],[103.448,4.8065],[103.4486,4.7951],[103.4412,4.7656],[103.4426,4.7428],[103.4525,4.7011],[103.4694,4.55],[103.4681,4.5271],[103.4514,4.4885],[103.4637,4.4438],[103.4617,4.4291],[103.4942,4.3366],[103.4964,4.3062],[103.4803,4.2602],[103.448,4.2175],[103.4548,4.1828],[103.4486,4.1724],[103.4247,4.1592],[103.3952,4.1163],[103.3941,4.0986],[103.4009,4.0673],[103.438,3.975],[103.4343,3.95],[103.4116,3.9639],[103.3947,3.935],[103.384,3.8903],[103.3784,3.8024],[103.361,3.802],[103.3511,3.7892],[103.3387,3.7582],[103.3396,3.7383],[103.345,3.7216],[103.3872,3.6247],[103.4046,3.6],[103.4387,3.5678],[103.4622,3.5341],[103.448,3.505],[103.4822,3.5118],[103.4334,3.4084],[103.4281,3.3672],[103.4445,3.2436],[103.4561,3.2038],[103.4346,2.9618],[103.4412,2.9221],[103.4736,2.851],[103.5202,2.789],[103.6384,2.6721],[103.6521,2.666],[103.6851,2.6621],[103.7054,2.6455],[103.7162,2.6415],[103.7258,2.6431],[103.7497,2.6546],[103.7651,2.6489],[103.7668,2.6418],[103.7642,2.6332],[103.7671,2.6238],[103.8018,2.5969],[103.814,2.5815],[103.8397,2.5248],[103.8311,2.5017],[103.8303,2.4824],[103.8377,2.4638],[103.9114,2.3707],[103.949,2.3399],[103.9534,2.3294],[103.9558,2.2983],[103.98,2.2656],[103.9837,2.2536],[103.9694,2.2127],[103.9764,2.1924],[104.0233,2.1345],[104.0488,2.0718],[104.0672,2.0468],[104.0855,2.011],[104.1128,1.9761],[104.1209,1.954],[104.1196,1.8912],[104.1243,1.8706],[104.1354,1.8489],[104.1492,1.8375],[104.1611,1.8471],[104.1675,1.8471],[104.1953,1.7987],[104.2043,1.7529],[104.2229,1.7269],[104.228,1.7121],[104.2295,1.6783],[104.2354,1.6644],[104.2552,1.6378],[104.2498,1.6273],[104.2565,1.6138],[104.2637,1.5722],[104.284,1.5175],[104.2937,1.4716],[104.2947,1.4465],[104.2796,1.4265],[104.2824,1.3826],[104.2774,1.3673],[104.2396,1.3673],[104.2192,1.3462],[104.1741,1.3482],[104.1545,1.3523],[104.114,1.3685],[104.1062,1.3752],[104.106,1.4045],[104.1006,1.4188],[104.065,1.4486],[104.0594,1.4853],[104.0863,1.5029],[104.1232,1.5175],[104.1476,1.5454],[104.1289,1.5497],[104.1112,1.5451],[104.0534,1.5063],[104.0122,1.5969],[103.9885,1.6324],[103.966,1.6479],[103.9602,1.6358],[103.9704,1.6086],[104.0083,1.5487],[104.0034,1.5069],[104.0125,1.4643],[104.0098,1.4486],[103.9745,1.4198],[103.9265,1.4317],[103.8397,1.4765],[103.8143,1.4745],[103.7741,1.4537],[103.7531,1.4486],[103.7127,1.4521],[103.6976,1.4506],[103.6814,1.4418],[103.6301,1.3774],[103.6001,1.3535],[103.5647,1.3598],[103.5479,1.3821],[103.5442,1.3772],[103.551,1.3428],[103.5485,1.3317],[103.5305,1.3052],[103.5164,1.2705],[103.5041,1.2899],[103.469,1.32],[103.4548,1.3394],[103.4463,1.3593],[103.4139,1.4678],[103.3954,1.5064],[103.3674,1.5384],[103.325,1.5653],[103.2061,1.6104],[103.0371,1.7155],[102.9963,1.7349],[102.9346,1.7475],[102.9232,1.7579],[102.9067,1.7844],[102.8875,1.8071],[102.8636,1.8278],[102.8356,1.8456],[102.8045,1.8601],[102.7884,1.8542],[102.7388,1.8466],[102.7219,1.8471],[102.6994,1.8594],[102.6862,1.8791],[102.6672,1.9216],[102.6506,1.9409],[102.5689,2.0064],[102.5576,2.0187],[102.5505,2.0314],[102.5591,2.0332],[102.5603,2.0364],[102.5573,2.0451],[102.5447,2.0577],[102.489,2.0929],[102.188,2.2164],[102.1543,2.2357],[102.127,2.2573],[102.0513,2.3409],[102.0187,2.3504],[101.999,2.3616],[101.9871,2.3771],[101.9888,2.3945],[101.9562,2.4048],[101.9268,2.4224],[101.9092,2.4108],[101.8775,2.4088],[101.8652,2.3945],[101.8582,2.4194],[101.8511,2.4789],[101.8274,2.4941],[101.8032,2.518],[101.7831,2.5759],[101.7744,2.5866],[101.761,2.5921],[101.7134,2.5966],[101.6735,2.6273],[101.6183,2.6369],[101.5979,2.6463],[101.5642,2.652],[101.5423,2.6613],[101.5028,2.6894],[101.4797,2.717],[101.4302,2.7925],[101.3992,2.8191],[101.3552,2.8293],[101.3106,2.8336],[101.2864,2.8497],[101.3035,2.8948],[101.281,2.8979],[101.2831,2.9112],[101.3328,2.9724],[101.3472,2.9855],[101.3616,2.991],[101.3728,3.0023],[101.3728,3.0283],[101.365,3.0764],[101.3586,3.0893],[101.3298,3.1118],[101.3234,3.1245],[101.3035,3.2548],[101.2976,3.2746],[101.2832,3.2908],[101.2489,3.32],[101.2357,3.3441],[101.2156,3.3492],[101.1976,3.3593],[101.1872,3.3802],[101.1397,3.4429],[101.1084,3.4739],[101.094,3.5058],[101.0742,3.5344],[101.0571,3.6005],[101.0405,3.622],[100.9679,3.6721],[100.9336,3.6893],[100.9124,3.7241],[100.8865,3.7563],[100.8696,3.768],[100.8229,3.7761],[100.8123,3.7866],[100.8132,3.8038],[100.8237,3.8271],[100.8416,3.8437],[100.8454,3.8513],[100.834,3.8544],[100.8118,3.8512],[100.7848,3.8393],[100.7346,3.8594],[100.7207,3.8681],[100.7095,3.883],[100.7007,3.9172],[100.7012,3.9672],[100.7063,3.9836],[100.7188,3.9909],[100.7817,3.988],[100.8015,3.9911],[100.8174,4.0108],[100.8346,4.0185],[100.855,4.0222],[100.8714,4.0189],[100.8615,4.0404],[100.8381,4.038],[100.8032,4.0189],[100.7776,4.0214],[100.773,4.037],[100.7767,4.0605],[100.7761,4.0865],[100.7659,4.0998],[100.7139,4.135],[100.6777,4.1652],[100.6555,4.1695],[100.6326,4.1555],[100.6226,4.1758],[100.613,4.2084],[100.6089,4.2384],[100.6152,4.2517],[100.6003,4.2565],[100.591,4.3],[100.5796,4.3112],[100.5697,4.3134],[100.5654,4.3192],[100.5798,4.3664],[100.5886,4.4123],[100.6077,4.4262],[100.6121,4.44],[100.6148,4.4678],[100.6326,4.5329],[100.6455,4.56],[100.6302,4.5539],[100.6123,4.5587],[100.5973,4.5719],[100.591,4.5908],[100.5944,4.6109],[100.6038,4.6295],[100.617,4.6383],[100.6326,4.6291],[100.6473,4.6547],[100.6662,4.6699],[100.6423,4.6743],[100.6204,4.6662],[100.6042,4.6658],[100.5978,4.6935],[100.5945,4.7431],[100.6039,4.756],[100.6326,4.7581],[100.6326,4.7656],[100.6121,4.7724],[100.6198,4.7864],[100.6174,4.7929],[100.5978,4.7997],[100.5762,4.7993],[100.5706,4.8134],[100.5695,4.8271],[100.5774,4.844],[100.5774,4.8543],[100.5531,4.862],[100.5501,4.8754],[100.5291,4.8679],[100.5054,4.868],[100.4944,4.8723],[100.4993,4.881],[100.5096,4.8886],[100.5153,4.8891],[100.5147,4.9025],[100.511,4.9069],[100.4817,4.9247],[100.4707,4.9223],[100.4539,4.9089],[100.4416,4.9228],[100.4265,4.9642],[100.4019,4.9923],[100.3957,5.0134],[100.3723,5.0614],[100.3645,5.0843],[100.3659,5.0925],[100.3787,5.0945],[100.409,5.1267],[100.4163,5.1596],[100.4309,5.1906],[100.4333,5.2112],[100.419,5.2485],[100.4333,5.29],[100.43,5.3029],[100.406,5.3484],[100.3853,5.3769],[100.3802,5.3907],[100.3787,5.4133],[100.3849,5.4993],[100.3784,5.5228],[100.3557,5.5627],[100.3508,5.5842],[100.344,5.6693],[100.3649,5.6627],[100.3763,5.6633],[100.3849,5.6693],[100.3864,5.6791],[100.3645,5.6941],[100.3757,5.8109],[100.3491,6.0127],[100.314,6.0706],[100.2962,6.1155],[100.26,6.1809],[100.2479,6.2208],[100.2326,6.2362],[100.2,6.259],[100.1746,6.291],[100.1528,6.3339],[100.1375,6.3805],[100.1273,6.4423],[100.1444,6.4796],[100.1485,6.5045],[100.1457,6.5395],[100.1672,6.5661],[100.1572,6.6035],[100.1561,6.6206],[100.1668,6.6951],[100.1733,6.7034],[100.1876,6.708],[100.2124,6.6892],[100.2275,6.6889],[100.2426,6.7003],[100.2633,6.7],[100.274,6.6963],[100.2808,6.6889],[100.3179,6.5767],[100.3292,6.5578],[100.3488,6.5406],[100.3874,6.5221],[100.4097,6.5153],[100.4523,6.5169],[100.4672,6.5132],[100.4992,6.4903],[100.5174,6.4819],[100.5784,6.4643],[100.6126,6.4492],[100.6307,6.4448],[100.6484,6.4472],[100.7129,6.493],[100.73,6.4932],[100.7339,6.4564],[100.7423,6.4501],[100.7733,6.4473],[100.7963,6.4339],[100.8056,6.4148],[100.8107,6.3558],[100.829,6.3163],[100.8215,6.2888],[100.8221,6.2599],[100.833,6.2367],[100.8373,6.2372],[100.8428,6.2439],[100.8551,6.2479],[100.9101,6.2358],[100.9289,6.2406],[100.9552,6.2686],[100.9743,6.2726],[101.0065,6.2464],[101.0231,6.241],[101.069,6.2509],[101.0817,6.2465],[101.0883,6.2335],[101.091,6.2132],[101.0892,6.1888],[101.08,6.1803],[101.0669,6.1743],[101.0534,6.1576],[101.0525,6.1346],[101.0871,6.1056],[101.0943,6.0858],[101.089,6.0466],[101.0875,5.9897],[101.0788,5.9382],[101.0711,5.9198],[101.0318,5.9089],[101.0153,5.8983],[100.9677,5.8041],[100.9653,5.7924],[100.9672,5.781],[100.9986,5.7295],[101.0084,5.7257],[101.0373,5.7246],[101.0598,5.7096],[101.0788,5.6878],[101.1054,5.6376],[101.1222,5.6299],[101.15,5.6386],[101.1969,5.6668],[101.2123,5.6815],[101.225,5.6992],[101.2336,5.7194],[101.249,5.787],[101.2797,5.803],[101.319,5.8101],[101.3576,5.8284],[101.3927,5.8511],[101.5347,5.906],[101.5579,5.9113],[101.5793,5.9063],[101.6051,5.8661],[101.6341,5.8556],[101.6308,5.8284],[101.6504,5.7826],[101.6659,5.7656],[101.6867,5.7612],[101.6966,5.7663],[101.7148,5.7829],[101.7268,5.7865],[101.74,5.7824],[101.7629,5.7495],[101.7842,5.7381],[101.8005,5.7399],[101.8123,5.7525],[101.8202,5.7737],[101.8255,5.7798],[101.8547,5.7977],[101.8692,5.8239],[101.9129,5.8593],[101.9193,5.8976],[101.9198,5.9403],[101.9347,5.9817],[101.9594,6.0116],[102.0334,6.0684],[102.06,6.0948],[102.0713,6.1267],[102.0667,6.2047],[102.0731,6.2575]]]]}},{"type":"Feature","properties":{"name":"Singapore"},"geometry":{"type":"MultiPolygon","coordinates":[[[[103.9608,1.3911],[103.9995,1.3803],[104.0034,1.3742],[103.9749,1.3345],[103.9544,1.3181],[103.9319,1.3115],[103.9072,1.3087],[103.8877,1.3013],[103.8389,1.2663],[103.8016,1.2648],[103.7896,1.2679],[103.7759,1.2876],[103.7551,1.2971],[103.7088,1.3052],[103.6653,1.3041],[103.6476,1.3084],[103.6404,1.3223],[103.6447,1.338],[103.6746,1.3803],[103.6838,1.4099],[103.7083,1.4294],[103.7398,1.4281],[103.7622,1.431],[103.8049,1.4486],[103.8316,1.4471],[103.8572,1.4387],[103.9325,1.4011],[103.9608,1.3911]]]]}}]}